Tipo Autorizzazione,Unità Locale,Cod. Impianto,Denominazione,Gestore,Prov.,Comune,Indirizzo,Latitudine,Longitudine,Colonna georeferenziata
Autorizzazione AIA,POZZUOLO DEL FRIULI Via Buttrio 28,UD/AIA/11,Attività di recupero metalli in acciaieria in aia POZZUOLO DEL FRIULI Via Buttrio 28,ACCIAIERIE BERTOLI SAFAU S.P.A.,UD,POZZUOLO DEL FRIULI,"Zona Industriale Udinese Via Buttrio,28",46.006925,13.25348,POINT (13.25348 46.006925)
Autorizzazione unica (ordinaria),"TRIESTE Via Querini, 6",TS/ESR/1637,"Impianto di trasferenza urbani non pericolosi TRIESTE Via Querini, 6",ACEGASAPSAMGA S.P.A.,TS,TRIESTE,"Via Pietro Querini,6",45.615148,13.81291,POINT (13.81291 45.615148)
Trattamento rifiuti liquidi art. 110 dlgs 152/06,"TRIESTE Via Usodimare, 2",TS_TS006021,"Impianto di depurazione acque reflue urbane TRIESTE Via Usodimare, 2",ACEGASAPSAMGA S.P.A.,TS,TRIESTE,"Via Antoniotto Usodimare,2",45.612692,13.804254,POINT (13.804254 45.612692)
Procedura semplificata/AUA,"DUINO AURISINA Località Stazione, Aurisina",COM_598,"Impianto di messa in riserva varie tipologie rifiuti DUINO AURISINA Località Stazione, Aurisina",ACQUISTO METALLI S.R.L.,TS,DUINO AURISINA,Aurisina Località Stazione,45.7491,13.692403,POINT (13.692403 45.7491)
Procedura semplificata/AUA,"MONFALCONE Via dei Boschetti, 44",F031012-0037_002,"Impianto di messa in riserva metalli MONFALCONE via Boschetti, 44",ACQUISTO METALLI S.R.L.,GO,MONFALCONE,"Via Boschetti,44",45.791061,13.5252,POINT (13.5252 45.791061)
Procedura semplificata/AUA,LIGNANO SABBIADORO Strada del Pantanel 28,COM_533,Impianto di recupero LIGNANO SABBIADORO Strada del Pantanel 28,ADECO S.R.L.,UD,LIGNANO SABBIADORO,"Pantanel Strada del Pantanel,28",45.685352,13.097554,POINT (13.097554 45.685352)
Autorizzazione unica (ordinaria),"MONFALCONE Via Grota del Diau Zot, Zona Industriale Lisert",GO_XYMOB008,"Impianto mobile Franzoi Tri 1611 - matr. 1064 MONFALCONE Via Grota del Diau Zot, Zona Industriale Lisert",ADRIASTRADE S.R.L.,GO,MONFALCONE,Zona Industriale Lisert Via Grota del Diau Zot,,,
Procedura semplificata/AUA,"MONFALCONE Via Grota del Diau Zot, Zona Industriale Lisert",COM_975,"Impianto di recupero inerti MONFALCONE via Grota del Diau Zot, Zona Industriale Lisert",ADRIASTRADE S.R.L.,GO,MONFALCONE,Zona Industriale Lisert Via Grota del Diau Zot,45.788551,13.573751,POINT (13.573751 45.788551)
Procedura semplificata/AUA,CAMPOLONGO TAPOGLIANO Strada comunale per Ruda,COM_248,Impianto di recupero inerti CAMPOLONGO TAPOGLIANO Strada comunale per Ruda,ADRIASTRADE S.R.L.,UD,CAMPOLONGO TAPOGLIANO,Campolongo al Torre Strada Comunale per Ruda,45.855198,13.406217,POINT (13.406217 45.855198)
Autorizzazione unica (ordinaria),"MARTIGNACCO Via Maù, 21",F030057-0013_002,"Impianto di recupero rifiuti pericolosi e non pericolosi MARTIGNACCO Via Maù, 21",AES S.R.L.,UD,MARTIGNACCO,"Via Maù,21",46.085525,13.148146,POINT (13.148146 46.085525)
Procedura semplificata/AUA,"MORSANO AL TAGLIAMENTO  Via dei Laghi, San Paolo",PN-COM-252,"Impianto di compostaggio verde MORSANO AL TAGLIAMENTO Via dei Laghi, San Paolo",AGRO SYSTEM S.R.L.,PN,MORSANO AL TAGLIAMENTO,San Paolo Via dei Laghi,45.866307,12.950551,POINT (12.950551 45.866307)
Procedura semplificata/AUA,MORSANO AL TAGLIAMENTO Località Feletti,PN-COM-237,Impianto di compostaggio verde MORSANO AL TAGLIAMENTO Località Feletti,AGRO SYSTEM S.R.L.,PN,MORSANO AL TAGLIAMENTO,Località Feletti,45.862777,12.90873,POINT (12.90873 45.862777)
Procedura semplificata/AUA,FIUME VENETO Via Bassi,F093021-0010_002,Impianto di compostaggio verde FIUME VENETO Via Bassi,AL CILIEGIO - SOCIETA' COOPERATIVA,PN,FIUME VENETO,Via Bassi,45.934368,12.718943,POINT (12.718943 45.934368)
Procedura semplificata/AUA,MORTEGLIANO Via Gabelli 2,COM_239,Impianto di recupero energetico legno MORTEGLIANO Via Gabelli 2,ALPEA S.R.L.,UD,MORTEGLIANO,"Via Aristide Gabelli,2",45.94083,13.170987,POINT (13.170987 45.94083)
Autorizzazione unica (ordinaria),"GRADISCA D'ISONZO Via Udine, 58",GO_GO008001,Impianto di autodemolizione GRADISCA D'ISONZO via Udine 58,ANZIL ENZO,GO,GRADISCA D'ISONZO,"Via Udine,58",45.893655,13.476242,POINT (13.476242 45.893655)
Procedura semplificata/AUA,"BRUGNERA Viale Europa,4",F093007-0019_002,"Impianto di recupero BRUGNERA Viale Europa,4",ARCOM S.R.L.,PN,BRUGNERA,"Zona Industriale Camol Viale Europa,4",45.932071,12.547751,POINT (12.547751 45.932071)
Procedura semplificata/AUA,PRATA DI PORDENONE via Palazzetto 56,PN-COM-108,Impianto di recupero energetico legno PRATA DI PORDENONE Via Palazzetto 56,AR-DUE S.P.A.,PN,PRATA DI PORDENONE,"Ghirano Via Palazzetto,56",45.847382,12.562491,POINT (12.562491 45.847382)
Procedura semplificata/AUA,"SAN GIORGIO DI NOGARO Via Torricelli, 1",F027036-0002_002,"Impianto di stoccaggio SAN GIORGIO DI NOGARO Via Torricelli, 1",AR.RE.FIN. S.r.l.,UD,SAN GIORGIO DI NOGARO,"via Torricelli,1",45.793256,13.218747,POINT (13.218747 45.793256)
Autorizzazione unica (ordinaria),"PALMANOVA Via Marinoni, 9",F030070-0010_002,"Impianto di stoccaggio spazzamento stradale PALMANOVA Via Marinoni, 9",ARTCO SERVIZI SOCIETA' COOPERATIVA IN BREVE ARTCO SERVIZI COOP.,UD,PALMANOVA,"via Marinoni,9",45.905207,13.291839,POINT (13.291839 45.905207)
Procedura semplificata/AUA,BRUGNERA viale Europa 10,PN-COM-222,Impianto di recupero energetico legno BRUGNERA viale Europa 10,AR - TRE S.R.L.,PN,BRUGNERA,"Zona Industriale del Camol Viale Europa,10",45.937781,12.551028,POINT (12.551028 45.937781)
Procedura semplificata/AUA,VALVASONE ARZENE Via Tabina 5,PN-COM-231,Impianto di recupero bitumi VALVASONE ARZENE Via Tabina 5,ASFALTI TAGLIAMENTO S.R.L.,PN,VALVASONE ARZENE,"Via Tabina,5",45.964619,12.869968,POINT (12.869968 45.964619)
Autorizzazione unica (ordinaria),"RIVE D'ARCANO Via Arcano Superiore, 12/1",UD_00008175,"Impianto di recupero raccolta differenziata RIVE D'ARCANO Via Arcano Superiore, 12/1",A&T 2000 SPA,UD,RIVE D_ ARCANO,"Prè Longhi di Camin Località Arcano Superiore,12/1",46.149221,13.058695,POINT (13.058695 46.149221)
Autorizzazione unica (ordinaria),DUINO-AURISINA Località Aurisina Cave,TS_TS001007,Impianto di recupero inerti DUINO AURISINA Località Aurisina Cave,AURISINA QUARRY S.R.L.,TS,DUINO AURISINA,Località Aurisina Cave,45.758991,13.652689,POINT (13.652689 45.758991)
Autorizzazione unica (ordinaria),"TRIESTE Via Maovaz, 2",TS_TS006006,"Impianto di autodemolizione TRIESTE Via Maovaz, 2",AUTOCARROZZERIA APOLLO 2 S.N.C. DI GIANCARLO GLAVINA E LILIANA GLAVINA,TS,TRIESTE,"Via Mario Maovaz,2",45.62347,13.826433,POINT (13.826433 45.62347)
Autorizzazione unica (ordinaria),PRADAMANO via Nazionale 100,UD_00002609,Impianto di autodemolizione PRADAMANO via Nazionale 100,AUTODEMOLIZIONI DEL FRATE S.N.C. DI PAOLO IURI & NICOLA DEL FRATE,UD,PRADAMANO,"Via Nazionale,100",46.020879,13.277559,POINT (13.277559 46.020879)
Autorizzazione unica (ordinaria),"CAMPOFORMIDO Via Adriarica, 53, Basaldella",UD_00002764,Impianto di autodemolizione CAMPOFORMIDO Via Adriatica 53,AUTODEMOLIZIONI DI BATTEL SILVANO & FIGLIO S.N.C.,UD,CAMPOFORMIDO,"Basaldella Via Adriatica,53",46.029991,13.217359,POINT (13.217359 46.029991)
Autorizzazione unica (ordinaria),"RUDA Via Chiozza, 2 La Fredda",UD_UD137001,Impianto di autodemolizione RUDA Via Chiozza 2 La Fredda,AUTODEMOLIZIONI DI PETEAN IVANA PALMIRA,UD,RUDA,"La Fredda Via Luigi Chiozza,2",45.836932,13.374177,POINT (13.374177 45.836932)
Autorizzazione unica (ordinaria),"SAVOGNA D'ISONZO Via Stradalta, 18, Peci",GO_GO022000,Impianto di autodemolizione SAVOGNA D'ISONZO Via Stradalta 18 Peci,AUTODEMOLIZIONI F.LLI PRIMOZIC DI PRIMOZIC RICCARDO & ROMINO S.N.C.,GO,SAVOGNA D'ISONZO,"Peci Via Stradalta,18",45.899264,13.586127,POINT (13.586127 45.899264)
Autorizzazione unica (ordinaria),SACILE Viale San Giovanni del Tempio 119/A,PN_PN037000,Impianto di autodemolizione SACILE Viale San Giovanni del Tempio 119/A,AUTODEMOLIZIONI GIUSTO DI GIUSTO SANTE & C. S.N.C.,PN,SACILE,"Viale San Giovanni del Tempio,119/A",45.967677,12.539377,POINT (12.539377 45.967677)
Autorizzazione unica (ordinaria),UDINE Via Oderzo 22,UD_UD129007,Impianto di messa in riserva sale e pfu UDINE Via Oderzo 22,AUTOTRASPORTI CHIARCOSSO S.R.L.,UD,UDINE,"Via Oderzo,22",46.029036,13.240051,POINT (13.240051 46.029036)
Procedura semplificata/AUA,AVIANO Via Giuseppe Ellero 37,PN-COM-151,Impianto di recupero asfalto AVIANO Via Giuseppe Ellero 37,AVIANESE ASFALTI S.R.L.,PN,AVIANO,"Zona Industriale Via Giuseppe Ellero,37",46.059029,12.613485,POINT (12.613485 46.059029)
Autorizzazione unica (ordinaria),UDINE Via Salvo d'Acquisto 56,UD_00008199,Impianto di messa in riserva rifiuti non pericolosi UDINE Via Salvo d'Acquisto 56,"AZIENDA TERRITORIALE PER L'EDILIZIA RESIDENZIALE DI UDINE IN SIGLA ""ATER DI UDINE""",UD,UDINE,"Via Salvo d’Acquisto,56",46.077463,13.257968,POINT (13.257968 46.077463)
Procedura semplificata/AUA,LATISANA Via Lignano Nord 178,COM_460,Impianto di messa in riserva e recupero inerti LATISANA Via Lignano Nord 178,BANDOLIN S.R.L.,UD,LATISANA,"Via Lignano Nord,178",45.740456,13.039055,POINT (13.039055 45.740456)
Procedura semplificata/AUA,"FONTANAFREDDA Via Giovanni Ellero 20, Ranzano",F093022-0025_002,"Impianto di messa in riserva FONTANAFREDDA Via Giovanni Ellero 20, Ranzano",BATTISTELLA SCAVI DI BATTISTELLA GIORGIO E SANDRO S.N.C.,PN,FONTANAFREDDA,"Via Enea Ellero,20",46.002935,12.536066,POINT (12.536066 46.002935)
Autorizzazione unica (ordinaria),"FIUMICELLO Via Giuseppe di Vittorio, Zona Artigianale Commerciale Cortona",UD_UD038000,"Impianto di autodemolizione FIUMICELLO Via Giuseppe Di Vittorio, Zona Artigianale Commerciale Cortona",B & B CARS S.A.S. DI BOSCAROL ANDREA,UD,FIUMICELLO,Zona Artigianale Commerciale Cortona  Via Giuseppe Di Vittorio,45.808445,13.410966,POINT (13.410966 45.808445)
Procedura semplificata/AUA,MANZANO Via Duca d'Aosta 23,F030129-0068_003,Impianto di messa in riserva MANZANO Via Duca d'Aosta 23,BERGA-FER DI BERGAMASCO ANDREA,UD,MANZANO,"Via Duca d'Aosta,23",45.985188,13.360492,POINT (13.360492 45.985188)
Procedura semplificata/AUA,"CODROIPO Strada Vicinale Pozzo-Valvasone, Casali Loreto",AUA_333,"Impianto di recupero inerti CODROIPO Strada Vicinale Pozzo-Valvasone, Casali Loreto",BERTOLO S.R.L.,UD,CODROIPO,Casali Loreto Strada Vicinale Pozzo-Valvasone,45.979683,12.920458,POINT (12.920458 45.979683)
Procedura semplificata/AUA,VALVASONE ARZENE Località Casatte 1,PN-COM-280,Impianto di messa in riserva e recupero inerti VALVASONE ARZENE Località Casatte 1,BERTOLO S.R.L.,PN,VALVASONE ARZENE,"Località Casatte,1",45.977142,12.882339,POINT (12.882339 45.977142)
Autorizzazione unica (ordinaria),VALVASONE ARZENE Località Casatte,DIS282PN,Discarica per inerti VALVASONE ARZENE Località Casatte,BERTOLO S.R.L.,PN,VALVASONE ARZENE,Località Casatte,45.976208,12.881849,POINT (12.881849 45.976208)
Autorizzazione unica (ordinaria),"FIUME VENETO Strada Statale Pontebbana, 21/B",PN_XYMOB0018,"Impianto mobile di recupero inerti FRANZOI TRI1611 matricola 1040 FIUME VENETO Strada Statale Pontebbana, 21/B",BESSEGA SAS DI BESSEGA VALERIO & C.,PN,FIUME VENETO,"Strada Statale n.13 ""Pontebbana"",21/B",45.946014,12.726073,POINT (12.726073 45.946014)
Autorizzazione unica (ordinaria),FIUME VENETO S.S. Pontebbana 21/B,PN_XYMOB0014,Impianto mobile recupero inerti Franzoi Tri 1611 matricola 1083 FIUME VENETO S.S. Pontebbana 21/B,BESSEGA SERVICE S.R.L.,PN,FIUME VENETO,"Strada Statale n.13 ""Pontebbana"",21/B",45.946196,12.72605,POINT (12.72605 45.946196)
Procedura semplificata/AUA,MUGGIA Strada delle Saline 40,COM_611,Impianto di recupero ceneri MUGGIA Strada delle Saline 40,BETON EST - S. A R.L.,TS,MUGGIA,"Strada delle Saline,40",45.598054,13.78934,POINT (13.78934 45.598054)
Autorizzazione AIA,MANIAGO Via Vivarina 18,PN/AIA/93,"Impianto di compostaggio, digestione anaerobica e recupero energetico da biogas MANIAGO Via Vivarina 18 località Cossana",BIOMAN S.P.A.,PN,MANIAGO,"Cossana Via Vivarina,18",46.124124,12.72019,POINT (12.72019 46.124124)
Autorizzazione AIA,"BICINICCO Via Santa Maria, 32",UD/AIA/118,"Impianto di recupero energetico legno BICINICCO Via Santa Maria, 32",BIPAN S.P.A.,UD,BICINICCO,"Via Santa Maria,32",45.93047,13.261485,POINT (13.261485 45.93047)
Procedura semplificata/AUA,"SOCCHIEVE Via Centro Sportivo, Zona Artigianale",COM_1022,"Impianto di recupero rifiuti inerti SOCCHIEVE Via Centro Sportivo, Zona Artigianale",BORIA LUIGINO & C. S.N.C.,UD,SOCCHIEVE,Via Centro Sportivo,46.398479,12.857995,POINT (12.857995 46.398479)
Autorizzazione unica (ordinaria),PORDENONE Via Vigonovo 4/a,PN_PN033003,Impianto di autodemolizione PORDENONE,BORTOLUS IVANO,PN,PORDENONE,"Via Vigonovo,4/a",45.973717,12.63925,POINT (12.63925 45.973717)
Autorizzazione unica (ordinaria),SAN VITO AL TAGLIAMENTO via Pescopagano 1,F093041-0039_002,Impianto recupero rifiuti non pericolosi SAN VITO AL TAGLIAMENTO Via Pescopagano 1,BOZ SEI SRL,PN,SAN VITO AL TAGLIAMENTO,"Zona Industriale Ponte Rosso Via Pescopagano,1",45.943693,12.870301,POINT (12.870301 45.943693)
Procedura semplificata/AUA,"MOSSA Via Isonzo, 32",COM_833,Impianto di messa in riserva e recupero inerti MOSSA via Isonzo 32,BUFFON GIANLUIGI,GO,MOSSA,Via Isonzo,45.928429,13.549914,POINT (13.549914 45.928429)
Autorizzazione AIA,"FANNA Via Pradis, 2",PN/AIA/12,"Impianto di recupero energetico e inerti FANNA Via Pradis, 2",BUZZI UNICEM SPA - SENZA VINCOLI DI RAPPRESENTAZIONE GRAFICA,PN,FANNA,"Via Pradis,2",46.177089,12.739999,POINT (12.739999 46.177089)
Trattamento rifiuti liquidi art. 110 dlgs 152/06,"LIGNANO SABBIADORO Via Lovato, 39",F030129-0050,"Impianto di depurazione acque reflue urbane LIGNANO SABBIADORO Via Lovato, 39",CAFC S.P.A.,UD,LIGNANO SABBIADORO,"Via Lovato,39",45.684688,13.107088,POINT (13.107088 45.684688)
Autorizzazione AIA,"UDINE Via Gonars, 38",UD/AIA/34,"Impianto di depurazione acque reflue urbane e industriali in aia UDINE Via Gonars, 38 - AIA/34",CAFC S.P.A.,UD,UDINE,"Via Gonars,38",46.027057,13.235264,POINT (13.235264 46.027057)
Autorizzazione AIA,"SAN GIORGIO DI NOGARO Via Jacopo Linussio, 8, Zona Industriale Aussa Corno",UD/AIA/96,"Impianto di depurazione acque reflue urbane e industriali in aia SAN GIORGIO DI NOGARO Via Jacopo Linussio, 8, Zona Industriale Aussa Corno - AIA/96",CAFC S.P.A.,UD,SAN GIORGIO DI NOGARO,"Via Jacopo Linussio,8",45.763332,13.232067,POINT (13.232067 45.763332)
Procedura semplificata/AUA,"ROMANS D'ISONZO Via Palmanova, Versa",COM_835,"Impianto di recupero rifiuti inerti ROMANS D'ISONZO Via Palmanova, Versa",CALCESTRUZZI TRIESTE S.R.L.,GO,ROMANS D'ISONZO,Versa Via Palmanova,45.895077,13.406067,POINT (13.406067 45.895077)
Autorizzazione unica (ordinaria),TRIESTE Via Errera 5,F031015-0004_002,"Impianto di recupero inerti TRIESTE Via Errera, 5",CALCESTRUZZI TRIESTE S.R.L.,TS,TRIESTE,"Via Carlo Errera,5",45.612793,13.799805,POINT (13.799805 45.612793)
Autorizzazione unica (ordinaria),"TRIESTE Via Errera, 9",TS_TS006018,"Impianto di cernita e messa in riserva rifiuti speciali TRIESTE Via Errera, 9",CALCINA INIZIATIVE AMBIENTALI - SOCIETA' A RESPONSABILITA' LIMITATA,TS,TRIESTE,"Via Carlo Errera,9",45.612144,13.799952,POINT (13.799952 45.612144)
Procedura semplificata/AUA,SAN VITO AL TAGLIAMENTO Via Carnia 1,F030097-0017_002,Impianto di recupero SAN VITO AL TAGLIAMENTO Via Carnia 1,CA. METAL S.R.L.,PN,SAN VITO AL TAGLIAMENTO,"Zona Industriale Ponte Rosso Via Carnia,1",45.940647,12.886372,POINT (12.886372 45.940647)
Procedura semplificata/AUA,"SEDEGLIANO Via Zappetti, Zona Industriale Pannellia",COM_924,"Impianto di recupero rifiuti vari SEDEGLIANO Via Zappetti, Zona Industriale Pannellia",CA. METAL S.R.L.,UD,SEDEGLIANO,Zona Industriale Pannellia Via Angelo Zappetti,45.991894,12.940586,POINT (12.940586 45.991894)
Autorizzazione unica (ordinaria),RONCHIS Corso Italia 106,UD_00002705,"Impianto di autodemolizione, recupero metalli, trattamento RAEE e stoccaggio pericolosi RONCHIS Corso Italia 106",CA. METAL S.R.L.,UD,RONCHIS,"Corso Italia,106",45.801509,12.995503,POINT (12.995503 45.801509)
Procedura semplificata/AUA,RONCHIS Strada dei Lustrei 3/5,COM_1040,"Impianto di recupero carta, plastica, metalli RONCHIS Strada dei Lustrei 3/5",CAMILOT RECYCLING S.R.L.,UD,RONCHIS,"Strada dei Lustrei,3",45.814522,13.020398,POINT (13.020398 45.814522)
Autorizzazione unica (ordinaria),CAMPOFORMIDO Via Adriatica 71,UD_00003308,Impianto di autodemolizione CAMPOFORMIDO Via Adriatica 71,C.A.R.A.M. COMMERCIALE AUTOMEZZI E RICAMBI AUTO METALLI DI BATTEL FRANCO,UD,CAMPOFORMIDO,"Basaldella Via Adriatica,71",46.029224,13.217019,POINT (13.217019 46.029224)
Autorizzazione unica (ordinaria),SESTO AL REGHENA Via Ippolito Nievo 84,PN_PN043000,Impianto di autodemolizione SESTO AL REGHENA Via Ippolito Nievo 84,CAR INTERNATIONAL S.R.L.,PN,SESTO AL REGHENA,"Via Ippolito Nievo,84",45.870886,12.884769,POINT (12.884769 45.870886)
Autorizzazione unica (ordinaria),TOLMEZZO Via Brasil,UD_00003204,Impianto di autodemolizione  TOLMEZZO Via Brasil,CARROZZERIA ALPINA DI BASSO EMANUELA & C. S.N.C.,UD,TOLMEZZO,Via Brasil,46.390209,13.033654,POINT (13.033654 46.390209)
Autorizzazione unica (ordinaria),ZOPPOLA Via Pontebbana 10,PN_PN051001,Impianto di autodemolizione ZOPPOLA Via Pontebbana 10,CARS SRL,PN,ZOPPOLA,"Via Pontebbana,10",45.956908,12.815312,POINT (12.815312 45.956908)
Procedura semplificata/AUA,POVOLETTO Via Giovanni Battista Maddalena 27,COM_342,"Impianto di recupero carta, plastica, metalli POVOLETTO Via Giovanni Battista Maddalena 27",CARTA DA MACERO DI MAZZETTI & CANTONI SRL,UD,POVOLETTO,"Zona Industriale di Grions del Torre Via Giovanni Battista Maddalena,27",46.092564,13.294476,POINT (13.294476 46.092564)
Autorizzazione unica (ordinaria),POVOLETTO Via Giovanni Battista Maddalena 27,UD_00002605,"Impianto di recupero carta, plastica, ingombranti POVOLETTO Via Giovanni Battista Maddalena 27",CARTA DA MACERO DI MAZZETTI & CANTONI SRL,UD,POVOLETTO,"Zona Industriale di Grions del Torre Via Giovanni Battista Maddalena,27",46.092301,13.294809,POINT (13.294809 46.092301)
Procedura semplificata/AUA,ROVEREDO IN PIANO Via IV Novembre 28,PN-COM-59,Impianto di recupero di rifiuti per la produzione di conglomerati bituminosi ROVEREDO IN PIANO Via IV Novembre 28,CAVE ASFALTI DI DELL'AGNESE S.R.L.,PN,ROVEREDO IN PIANO,"Lovera Via IV Novembre,28",46.000286,12.605733,POINT (12.605733 46.000286)
Procedura semplificata/AUA,"OSOPPO Via Volontari della Libertà F4/P8,9,10",COM_506,"Impianto di recupero inerti OSOPPO Via Volontari della Libertà, Zona Artigianale",C. & C. S.N.C. DI MARINO E GIULIO CONTESSI,UD,OSOPPO,Zona Artigianale Via Volontari della Libertà,46.267204,13.091395,POINT (13.091395 46.267204)
Autorizzazione unica (ordinaria),"GORIZIA Stradone della Mainizza, 179",GO_GO007005,Impianto di recupero metalli GORIZIA Stradone della Mainizza 179,CENTRO RECUPERO METALLI D'ADDATO S.R.L.,GO,GORIZIA,"Stradone della Mainizza,179",45.927791,13.576588,POINT (13.576588 45.927791)
Autorizzazione unica (ordinaria),MAGNANO IN RIVIERA Via Sandanieletto,UD_UD052000,Impianto di messa in riserva rifiuti metallici  MAGNANO IN RIVIERA Via Sandanieletto,CEREDA S.A.S. DI FILIPPO CEREDA & C.,UD,MAGNANO IN RIVIERA,Via San Danieletto,46.226748,13.174266,POINT (13.174266 46.226748)
Autorizzazione unica (ordinaria),TAVAGNACCO Via Enrico Fermi 108,UD_XYMOB019,Impianto mobile Gasparin Fuego mat. 06020/2007 TAVAGNACCO Via Enrico Fermi 108,CGS S.P.A.,UD,TAVAGNACCO,"Feletto Umberto Via Enrico Fermi,108",,,
Procedura semplificata/AUA,AMARO Località Somprat,COM_372,Impianto di recupero rifiuti da costruzione e demolizione AMARO Località Somprat,CGS S.P.A.,UD,AMARO,Località Somprat,46.378979,13.118598,POINT (13.118598 46.378979)
Procedura semplificata/AUA,PAVIA DI UDINE Via della Tecnologia 22/24,COM_944,Impianto di recupero rifiuti inerti PAVIA DI UDINE Via della Tecnologia 22/24,CHIARANDINI ALESSANDRO,UD,PAVIA DI UDINE,"Zona Industriale Udinese Via della Tecnologia,22-24",45.996246,13.263266,POINT (13.263266 45.996246)
Autorizzazione unica (ordinaria),REMANZACCO Via Case Passaggio a Livello 40,UD_00002765,Impianto di autodemolizione REMANZACCO Via Case Passaggio a Livello 40,CLINAZ ROMANO & C. S.N.C.,UD,REMANZACCO,"Via Case Passaggio a Livello,40",46.080293,13.338293,POINT (13.338293 46.080293)
Procedura semplificata/AUA,SAN VITO AL TAGLIAMENTO Via Gemona 36,F093036-0018_002,Impianto di recupero ceneri SAN VITO AL TAGLIAMENTO Via Gemona 36,COBETON S.R.L.,PN,SAN VITO AL TAGLIAMENTO,"Zona Industriale Ponte Rosso Via Gemona,36",45.945978,12.887166,POINT (12.887166 45.945978)
Procedura semplificata/AUA,ROVEREDO IN PIANO Via delle Arti e Mestieri 15,PN-COM-257,Impianto di recupero ceneri ROVEREDO IN PIANO Via delle Arti e Mestieri 15,COBETON S.R.L.,PN,ROVEREDO IN PIANO,"Via delle Arti e Mestieri,15",45.985871,12.620441,POINT (12.620441 45.985871)
Procedura semplificata/AUA,MANIAGO Via Ponte Giulio 63,PN-COM-221,Impianto di recupero ceneri MANIAGO Via Ponte Giulio 63,COBETON S.R.L.,PN,MANIAGO,"Zona Industriale Campagna Via Ponte Giulio,63",46.149408,12.716378,POINT (12.716378 46.149408)
Autorizzazione unica (ordinaria),PORDENONE Via Prà 5,PN_PN033001,Impianto di autodemolizione PORDENONE Via Prà 5,COCOZZA S.R.L.,PN,PORDENONE,"Via Prà,5",45.948293,12.698039,POINT (12.698039 45.948293)
Procedura semplificata/AUA,CORDENONS Via Calipari 19,PN-COM-236,Impianto di messa in riserva di oli e grassi animali e vegetali CORDENONS Via Calipari 19,CO. GE. ECOLOGICA S.R.L.,PN,CORDENONS,"Via Nicola Calipari,19",45.963198,12.700772,POINT (12.700772 45.963198)
Procedura semplificata/AUA,PRATA DI PORDENONE Via Opitergina 103,PN-COM-83,Impianto di recupero energetico PRATA DI PORDENONE Via Opitergina 103,COMPAS S.A.S. DI TOMASELLA PAOLO & C.,PN,PRATA DI PORDENONE,"Via Opitergina,103",45.896996,12.598271,POINT (12.598271 45.896996)
Autorizzazione unica (ordinaria),ARBA Via del Mulinat,PN002002,Impianto di stoccaggio spazzamento stradale ARBA Via del Mulinat,COMUNE DI ARBA,PN,ARBA,San Rocco Via del Mulinat,46.141765,12.783526,POINT (12.783526 46.141765)
Autorizzazione unica (ordinaria),AVIANO via Ellero,PN004005,Impianto di stoccaggio spazzamento stradale AVIANO via Ellero,COMUNE DI AVIANO,PN,AVIANO,Zona Industriale Via Giuseppe Ellero,46.061278,12.604785,POINT (12.604785 46.061278)
Autorizzazione unica (ordinaria),AZZANO DECIMO Via Troiat 2,PN005002,Impianto di stoccaggio spazzamento stradale AZZANO DECIMO Via Troiat,COMUNE DI AZZANO DECIMO,PN,AZZANO DECIMO,Via Troiat,45.873842,12.71598,POINT (12.71598 45.873842)
Autorizzazione unica (ordinaria),CANEVA Località Fratta,F093009-0005_002,Impianto di stoccaggio spazzamento stradale CANEVA Località Fratta,COMUNE DI CANEVA,PN,CANEVA,"Piazza Martiri Garibaldini,8",45.95608,12.458421,POINT (12.458421 45.95608)
Autorizzazione unica (ordinaria),CASARSA DELLA DELIZIA Via Turridetta,PN010000,Impianto di stoccaggio spazzamento stradale CASARSA DELLA DELIZIA Via Turridetta,COMUNE DI CASARSA DELLA DELIZIA,PN,CASARSA DELLA DELIZIA,Via Turridetta,45.961351,12.853605,POINT (12.853605 45.961351)
Autorizzazione unica (ordinaria),CAVASSO NUOVO Località Case Sparse,PN012000,Impianto di stoccaggio spazzamento stradale CAVASSO NUOVO Località Case Sparse,COMUNE DI CAVASSO NUOVO,PN,CAVASSO NUOVO,Località Case Sparse,46.196179,12.783709,POINT (12.783709 46.196179)
Autorizzazione unica (ordinaria),CERVIGNANO DEL FRIULI Via da Riseris,UD_00008148,Impianto di messa in riserva accumulatori e olio minerale CERVIGNANO DEL FRIULI Via da Riseris,COMUNE DI CERVIGNANO DEL FRIULI,UD,CERVIGNANO DEL FRIULI,presso magazzino comunale Via da Riseris,45.814809,13.324669,POINT (13.324669 45.814809)
Autorizzazione unica (ordinaria),FANNA Via Circonvallazione Nuova,PN_PN020000,Impianto di stoccaggio spazzamento stradale FANNA Via Circonvallazione Nuova,COMUNE DI FANNA,PN,FANNA,Via Circonvallazione Nuova,46.181471,12.755037,POINT (12.755037 46.181471)
Autorizzazione unica (ordinaria),"FIUME VENETO Via Mazzini, Cimpello",PN_PN021001,"Impianto di stoccaggio spazzamento stradale FIUME VENETO Via Mazzini, Cimpello",COMUNE DI FIUME VENETO,PN,FIUME VENETO,Cimpello Via Mazzini,45.917775,12.705243,POINT (12.705243 45.917775)
Autorizzazione unica (ordinaria),"FONTANAFREDDA Via Galileo Galilei, 25, Vigonovo",PN_PN022003,"Impianto di stoccaggio spazzamento stradale FONTANAFREDDA Via Galileo Galilei, 25 Vigonovo",COMUNE DI FONTANAFREDDA,PN,FONTANAFREDDA,"Vigonovo Via Galileo Galilei,25",45.985563,12.544345,POINT (12.544345 45.985563)
Autorizzazione unica (ordinaria),GRADO Località Laguna Isola Le Cove,GO_COMGR_001,Impianto di messa in riserva rifiuti da spazzamento stradale GRADO Laguna Isola Le Cove,COMUNE DI GRADO,GO,GRADO,Località Laguna Isola Le Cove,45.685598,13.405922,POINT (13.405922 45.685598)
Autorizzazione unica (ordinaria),MONTEREALE VALCELLINA Zona Industriale,F093027-0007_002,Impianto di stoccaggio spazzamento stradale MONTEREALE VALCELLINA Zona Industriale,COMUNE DI MONTEREALE VALCELLINA,PN,MONTEREALE VALCELLINA,Grizzo Zona Industriale,46.134311,12.660016,POINT (12.660016 46.134311)
Autorizzazione unica (ordinaria),PAGNACCO Via Castellerio 38/A,UD_UD137005,"Impianto di messa in riserva batterie PAGNACCO Via Castellerio, 38/A",COMUNE DI PAGNACCO,UD,PAGNACCO,"Via Castellerio,38/A",46.119819,13.187184,POINT (13.187184 46.119819)
Autorizzazione unica (ordinaria),"PAVIA DI UDINE Via Lauzacco, ex caserma Paravano",F030074-0027_002,"Impianto di stoccaggio spazzamento stradale PAVIA DI UDINE Via Lauzacco, ex caserma Paravano",COMUNE DI PAVIA DI UDINE,UD,PAVIA DI UDINE,ex caserma Paravano Via Lauzacco,45.992165,13.296604,POINT (13.296604 45.992165)
Autorizzazione unica (ordinaria),PORCIA Via del Platano,PN_PN032006,"Impianto di stoccaggio spazzamento stradale e verde PORCIA Via del Platano, 2",COMUNE DI PORCIA,PN,PORCIA,Depuratore Via del Platano,45.95543,12.610123,POINT (12.610123 45.95543)
Autorizzazione unica (ordinaria),PRAVISDOMINI Via Barco,PN_PN052004,Impianto di stoccaggio spazzamento stradale PRAVISDOMINI Via Barco,COMUNE DI PRAVISDOMINI,PN,PRAVISDOMINI,Via Barco,45.813834,12.68002,POINT (12.68002 45.813834)
Autorizzazione unica (ordinaria),"SACILE Via del Camol, San Giovanni di Livenza",PN_PN037002,"Impianto di stoccaggio spazzamento stradale SACILE Via del Camol, San Giovanni di Livenza",COMUNE DI SACILE,PN,SACILE,San Giovanni di Livenza Via del Camol,45.926265,12.52384,POINT (12.52384 45.926265)
Autorizzazione unica (ordinaria),SAN DANIELE DEL FRIULI Via Ermes Midena,F030099-0011_002,Impianto di stoccaggio spazzamento stradale SAN DANIELE DEL FRIULI Via Ermes Midena,COMUNE DI SAN DANIELE DEL FRIULI,UD,SAN DANIELE DEL FRIULI,Via Ermes Midena,46.150278,12.983804,POINT (12.983804 46.150278)
Autorizzazione unica (ordinaria),SAN QUIRINO Via San Rocco,CDR/PN040003,Centro di raccolta autorizzato SAN QUIRINO Via San Rocco,COMUNE DI SAN QUIRINO,PN,SAN QUIRINO,Via San Rocco,46.032294,12.683287,POINT (12.683287 46.032294)
Autorizzazione unica (ordinaria),SAN VITO AL TAGLIAMENTO Viale Zuccherificio,PN_PN041008,Impianto di stoccaggio spazzamento stradale SAN VITO AL TAGLIAMENTO Viale Zuccherificio,COMUNE DI SAN VITO AL TAGLIAMENTO,PN,SAN VITO AL TAGLIAMENTO,Centro di raccolta Viale Zuccherificio,45.90583,12.849289,POINT (12.849289 45.90583)
Autorizzazione unica (ordinaria),SPILIMBERGO Via del Macello,PN_PN044003,Impianto di stoccaggio spazzamento stradale SPILIMBERGO Via del Macello,COMUNE DI SPILIMBERGO,PN,SPILIMBERGO,Via del Macello,46.108635,12.881607,POINT (12.881607 46.108635)
Autorizzazione unica (ordinaria),TARCENTO Via Angorie,F030116-0008_002,Impianto di stoccaggio spazzamento stradale TARCENTO Via Angorie,COMUNE DI TARCENTO,UD,TARCENTO,Via Angorie,46.209946,13.21579,POINT (13.21579 46.209946)
Autorizzazione unica (ordinaria),"TRICESIMO Via San Giorgio, presso Caserma S. Patussi",F030127-0004_002,"Impianto di stoccaggio spazzamento stradale TRICESIMO Via San Giorgio, presso Caserma S. Patussi",COMUNE DI TRICESIMO,UD,TRICESIMO,Via San Giorgio,46.152476,13.22375,POINT (13.22375 46.152476)
Autorizzazione unica (ordinaria),VIVARO Via di Fanna,PN_PN050001,Impianto di stoccaggio spazzamento stradale VIVARO Via di Fanna,COMUNE DI VIVARO,PN,VIVARO,Via di Fanna,46.090116,12.771022,POINT (12.771022 46.090116)
Autorizzazione AIA,"SAN VITO AL TAGLIAMENTO Via Gemona 2, Zona Industriale Ponte Rosso",PN/AIA/103,"Impianto di depurazione acque reflue urbane e industriali in aia SAN VITO AL TAGLIAMENTO Via Gemona 2, Zona Industriale Ponte Rosso",CONSORZIO DI SVILUPPO ECONOMICO LOCALE DEL PONTE ROSSO - TAGLIAMENTO,PN,SAN VITO AL TAGLIAMENTO,"Zona Industriale Ponte Rosso Via Gemona,2",45.934995,12.883621,POINT (12.883621 45.934995)
Procedura semplificata/AUA,"SAN GIORGIO DI NOGARO Porto Margreth, Zona Industriale Aussa-Corno",COM_1017,"Impianto di messa in riserva rifiuti metallici SAN GIORGIO DI NOGARO Porto Margreth, Zona Industriale Aussa-Corno",CONSORZIO PORTONUOVO,UD,SAN GIORGIO DI NOGARO,Zona Industriale Aussa-Corno Porto Margreth,45.797943,13.227957,POINT (13.227957 45.797943)
Autorizzazione unica (ordinaria),"MAGNANO IN RIVIERA Via Zire, 5",F030052-0012_002,"Impianto di stoccaggio MAGNANO IN RIVIERA Via Zire, 5",CONU S.R.L.,UD,MAGNANO IN RIVIERA,"Via Zire,5",46.219781,13.193727,POINT (13.193727 46.219781)
Autorizzazione unica (ordinaria),PORCIA Via Torricelli 14,PN_PN032008,Impianto di recupero RAEE e messa in riserva rifiuti PORCIA Via Torricelli 14,COOPERATIVA SOCIALE KARPOS - SOCIETA' COOPERATIVA O.N.L.U.S.,PN,PORCIA,"Talponedo Via Evangelista Torricelli,14",45.9633,12.600287,POINT (12.600287 45.9633)
Autorizzazione unica (ordinaria),GEMONA DEL FRIULI Via Venzone 21,UD_XYMOB007,Impianto mobile Rev Gcr matr. 11216 GEMONA DEL FRIULI Via Venzone 21,COPETTI S.P.A.,UD,GEMONA DEL FRIULI,"Via Venzone,21",,,
Procedura semplificata/AUA,SAN VITO AL TORRE Via Remis 20,COM_306,"Impianto di recupero rifiuti metallici SAN VITO AL TORRE Via Remis, 20",CORRADINI S.R.L.,UD,SAN VITO AL TORRE,"Nogaredo al Torre Via Remis,20",45.920631,13.365812,POINT (13.365812 45.920631)
Autorizzazione AIA,BUJA Via Praz dai Trois 4,UD/AIA/119,"Impianto di recupero rifiuti metallici BUJA Via Praz dai Trois 4, Zona Industriale Saletti",CORTE S.P.A.,UD,BUIA,"Zona Industriale Saletti Via Praz di Trois,4",46.222892,13.086562,POINT (13.086562 46.222892)
Autorizzazione unica (ordinaria),VILLESSE Via Aquileia 36,GO_GO025000,Impianto di autodemolizione VILLESSE Via Aquileia 36,COSTANTIN GINO & C. S.N.C.,GO,VILLESSE,"Via Aquileia,36",45.867981,13.441846,POINT (13.441846 45.867981)
Procedura semplificata/AUA,"SAN PIER D'ISONZO Via Soleschiano, 20",COM_803,Impianto di recupero rifiuti inerti SAN PIER D'ISONZO Via Soleschiano 20,COSTRUZIONI ISONZO S.R.L. - CO.IS,GO,SAN PIER D'ISONZO,"Via Soleschiano,20",45.841312,13.472446,POINT (13.472446 45.841312)
Autorizzazione unica (ordinaria),"SAN PIER D'ISONZO Via Soleschiano, 20",DIS207GO,Discarica per inerti SAN PIER D'ISONZO Via Soleschiano 20,COSTRUZIONI ISONZO S.R.L. - CO.IS,GO,SAN PIER D'ISONZO,"Via Soleschiano,20",45.840148,13.472896,POINT (13.472896 45.840148)
Procedura semplificata/AUA,VALVASONE ARZENE Via Fornasini 18/A,PN-COM-255,"Impianto di recupero plastica, carta, legno, metalli VALVASONE ARZENE Via Fornasini 18/A",C.S.R. S.R.L.,PN,VALVASONE ARZENE,"Tabina Via Fornasini,18/A",45.96262,12.874624,POINT (12.874624 45.96262)
Autorizzazione unica (ordinaria),PORDENONE Via Segaluzza 30/A,PN_PN033004,Impianto di trattamento rifiuti chimici solidi e liquidi PORDENONE Via Segaluzza 30/A,DARSA  S.R.L.,PN,PORDENONE,"Zona Industriale Vallenoncello SUD Via Segaluzza,30/A",45.929547,12.651494,POINT (12.651494 45.929547)
Autorizzazione unica (ordinaria),MAGNANO IN RIVIERA Strada Statale Pontebbana 46,UD_00007833,Impianto di autodemolizione MAGNANO IN RIVIERA Strada Statale Pontebbana 46,DEL MEDICO WALTER,UD,MAGNANO IN RIVIERA,"Bueriis Strada Statale n.13 ""Pontebbana"",46",46.209303,13.185562,POINT (13.185562 46.209303)
Autorizzazione unica (ordinaria),"SAN DANIELE DEL FRIULI Via dei Ponti 47, Cimano",UD_XYMOB022,Impianto mobile OM mat. 99A12400T SAN DANIELE DEL FRIULI Via dei Ponti 47,DE MONTE ARTURO & C. S.N.C.,UD,SAN DANIELE DEL FRIULI,"Via dei Ponti,47",,,
Procedura semplificata/AUA,"SAN DANIELE DEL FRIULI Via Prataront 47, Cimano fg. 3 mapp. 48,49,52,53",COM_573,Impianto di recupero rifiuti da costruzione e demolizione SAN DANIELE DEL FRIULI via Prataront 47,DE MONTE ARTURO & C. S.N.C.,UD,SAN DANIELE DEL FRIULI,"Cimano Via Prataront,47",46.207233,13.017715,POINT (13.017715 46.207233)
Autorizzazione AIA,"SAN GIOVANNI AL NATISONE Via Braiduzza, 16, Cascina Rinaldi",UD/AIA/36,"Impianto di trattamento rifiuti liquidi in aia SAN GIOVANNI AL NATISONE Via Braiduzza, 16, Cascina Rinaldi",DEPURA S.R.L.,UD,SAN GIOVANNI AL NATISONE,"Zona Industriale Cascina Rinaldi Via Braiduzza,16",45.971018,13.421066,POINT (13.421066 45.971018)
Autorizzazione AIA,"CODROIPO Via Prati di Loreto, Zona industriale Pannellia",UD/AIA/132,"Impianto di compostaggio e digestione anaerobica con recupero energetico CODROIPO Via Prati di Loreto, Zona Industriale Pannellia",DESAG  ECOLOGIA S.C.A R.L.,UD,CODROIPO,"Zona Industriale Pannellia Via Prati di Loreto,1",45.979637,12.929977,POINT (12.929977 45.979637)
Procedura semplificata/AUA,TOLMEZZO Via dell'Industria 21,COM_1042,"Impianto di messa in riserva rifiuti da costruzione e demolizione TOLMEZZO Via dell'Industria, 21",DEXIVE S.P.A.,UD,TOLMEZZO,"Via dell'Industria,21",46.391246,13.030642,POINT (13.030642 46.391246)
Procedura semplificata/AUA,SAN QUIRINO Via Comina 15,PN-COM-268,Impianto di messa in riserva rifiuti da costruzione e demolizione SAN QUIRINO Via Comina 15,DEXIVE S.P.A.,PN,SAN QUIRINO,"Comina Via Comina,15",45.99781,12.651462,POINT (12.651462 45.99781)
Procedura semplificata/AUA,SGONICO Località Stazione di Prosecco,COM_965,Impianto di compostaggio verde SGONICO Località Stazione di Prosecco,ECOCENTRO TRIESTE DI STEFANIA CINELLO & C. SNC,TS,SGONICO,Località Stazione di Prosecco,45.718047,13.748686,POINT (13.748686 45.718047)
Autorizzazione unica (ordinaria),PASIAN DI PRATO Via Venceslao Menazzi Moretti 12,F030072-0015_002,Impianto di messa in riserva e deposito preliminare rifiuti sanitari PASIAN DI PRATO Via Venceslao Menazzi Moretti 12,ECOFARM S.R.L.,UD,PASIAN DI PRATO,"Via Venceslao Menazzi Moretti,12",46.053756,13.170215,POINT (13.170215 46.053756)
Autorizzazione unica (ordinaria),"POLCENIGO Località Artugna, Sponda sinistra Torrente Artugna (sud)",DIS220PN,"Discarica per inerti POLCENIGO Località Artugna, Sponda sinistra Torrente Artugna (sud)",ECOFRIULI S.R.L.,PN,POLCENIGO,Sponda sinistra Torrente Artugna Località Artugna,46.017756,12.527659,POINT (12.527659 46.017756)
Procedura semplificata/AUA,SAN GIORGIO DI NOGARO Via Meucci 7,COM_253,"Impianto di messa in riserva legno SAN GIORGIO DI NOGARO Via Meucci, 7",ECOLEGNO UDINE - SOCIETA' A RESPONSABILITA' LIMITATA,UD,SAN GIORGIO DI NOGARO,"Via Antonio Meucci,7",45.795448,13.22107,POINT (13.22107 45.795448)
Autorizzazione unica (ordinaria),"AIELLO DEL FRIULI Via dell'Industria 3, Joannis",UD_UD0000998,"Impianto di recupero cartongesso AIELLO DEL FRIULI Via dell'Industria 3, Joannis",ECOLOGICAL WAY S.R.L.,UD,AIELLO DEL FRIULI,"Joannis Via dell'Industria,3",45.881072,13.352085,POINT (13.352085 45.881072)
Autorizzazione unica (ordinaria),"MONFALCONE Via Vittorio Veneto, 14",F031012-0014_002,Impianto di messa in riserva legno MONFALCONE Via Vittorio Veneto 14,ECO-MAR S.R.L. - IN LIQUIDAZIONE,GO,MONFALCONE,"Via Vittorio Veneto,14",45.7933,13.549161,POINT (13.549161 45.7933)
Autorizzazione AIA,SPILIMBERGO Via Zona industriale sul Cosa,PN/AIA/23,Impianto di inceneriemto SPILIMBERGO Via Zona Industriale sul Cosa,ECO-MISTRAL SRL,PN,SPILIMBERGO,Inceneritore Via Zona Industriale sul Cosa,46.100825,12.873008,POINT (12.873008 46.100825)
Autorizzazione unica (ordinaria),SPILIMBERGO Via Zona industriale sul Cosa,PN/AIA/23,Impianto di inceneriemto SPILIMBERGO Via Zona Industriale sul Cosa,ECO-MISTRAL SRL,PN,SPILIMBERGO,Inceneritore Via Zona Industriale sul Cosa,46.100825,12.873008,POINT (12.873008 46.100825)
Autorizzazione unica (ordinaria),SAN VITO AL TAGLIAMENTO Via Clauzetto 42,PN_XYMOB007,Impianto mobile recupero RAEE SAN VITO AL TAGLIAMENTO Via Clauzetto 42,ECO SINERGIE SOCIETA' CONSORTILE A RESPONSABILITA' LIMITATA,PN,SAN VITO AL TAGLIAMENTO,"Zona Industriale Ponte Rosso Via Clauzetto,42",45.949359,12.871445,POINT (12.871445 45.949359)
Autorizzazione AIA,"SAN VITO AL TAGLIAMENTO Via Clauzetto 42, Zona Industriale Ponte Rosso",PN/AIA/97,"Impianto gestione rifiuti urbani e speciali con produzione css SAN VITO AL TAGLIAMENTO Via Clauzetto, 42, Zona Industriale Ponte Rosso",ECO SINERGIE SOCIETA' CONSORTILE A RESPONSABILITA' LIMITATA,PN,SAN VITO AL TAGLIAMENTO,"Zona Industriale Ponte Rosso Via Clauzetto,42",45.949762,12.871765,POINT (12.871765 45.949762)
Procedura semplificata/AUA,"CAMPOFORMIDO Via Principe di Udine,130",UL-F023082-0003_002,"Impianto di stoccaggio oli esausti CAMPOFORMIDO Via Principe di Udine,130",ECOSOLE S.R.L. - SOCIETA' UNIPERSONALE,UD,CAMPOFORMIDO,"Via Principe di Udine,130",46.02588,13.170239,POINT (13.170239 46.02588)
Autorizzazione unica (ordinaria),AVIANO Via San Martino 3,F093004-0016_002,"Impianto di messa in riserva e selezione plastica AVIANO Via San Martino, 3",ECOSOL ITALIA S.R.L. ***IN LIQUIDAZIONE***,PN,AVIANO,"Via San Martino,3",46.0409,12.3645,POINT (12.3645 46.0409)
Autorizzazione unica (ordinaria),"VILLESSE Via Trieste, 31",GO_XYMOB010,"Impianto mobile Doppstadt DW 3060K matr. 052 VILLESSE Via Trieste, 31",ECO STUDIO S.R.L.,GO,VILLESSE,"Via Trieste,31",45.858194,13.451214,POINT (13.451214 45.858194)
Procedura semplificata/AUA,"VILLESSE Via Trieste, 31",COM_849,Impianto di recupero rifiuti vari VILLESSE Via Trieste 31,ECO STUDIO S.R.L.,GO,VILLESSE,"Via Trieste,31",45.858044,13.452963,POINT (13.452963 45.858044)
Procedura semplificata/AUA,"CORMONS Via Corona, 27",COM_850,"Impianto di recupero metalli CORMONS Via Corona, 27",EDALUCCI ANDREA,GO,CORMONS,"Via Corona,27",45.943935,13.471609,POINT (13.471609 45.943935)
Procedura semplificata/AUA,TRIESTE Strada per Basovizza 92,COM_643,Impianto di recupero ceneri e inerti TRIESTE Strada per Basovizza 92,EDILCEM - S.R.L.,TS,TRIESTE,"Strada per Basovizza,92",45.645192,13.826975,POINT (13.826975 45.645192)
Procedura semplificata/AUA,AZZANO DECIMO Via Tiezzo,PN-COM-240,Impianto di recupero inerti da costruzione e demolizione AZZANO DECIMO Via Tiezzo,EDIL RESTAURO S.N.C. DI FAVOT ROBERTO E PAOLO,PN,AZZANO DECIMO,Via Tiezzo,45.912369,12.664233,POINT (12.664233 45.912369)
Autorizzazione unica (ordinaria),MARTIGNACCO Via Arturo Malignani 12,F030057-0008_003,Impianto mobile di recupero inerti Rubble Master RM80 GO! matr. 0117 MARTIGNACCO Via Arturo Malignani 12,EDILVERDE S.R.L.,UD,MARTIGNACCO,"Via Arturo Malignani,12",,,
Autorizzazione AIA,"PORCIA Via Brentella 15, Località Comina",DIS149PN/AIA/10,"Discarica per non pericolosi in aia PORCIA Via Brentella 15, Località Comina",ELECTROLUX ITALIA S.P.A.,PN,PORCIA,"Comina Via Brentella,15",45.981031,12.623046,POINT (12.623046 45.981031)
Procedura semplificata/AUA,UDINE Via Strada dell'Argine,COM_350,Impianto di recupero energetico biogas di discarica UDINE Via Strada dell'Argine,ELETTRICITA' DAI RIFIUTI URBANI SRL,UD,UDINE,San Gottardo Strada dell'Argine,46.087009,13.278957,POINT (13.278957 46.087009)
Autorizzazione unica (ordinaria),VENZONE Strada Statale Pontebbana 73,UD_XYMOB031,Impianto mobile di recupero inerti  Hartl matr. 523-110-137 VENZONE Strada Statale Pontebbana 73,ENRICO RAVANELLI S.R.L.,UD,VENZONE,"Stazione Carnia Strada Statale n.13 ""Pontebbana"",73",,,
Autorizzazione unica (ordinaria),"PRADAMANO Via Cussignacco, 78/11",UD_UD080005,"Impianto di stoccaggio e recupero rifiuti non pericolosi PRADAMANO Via Cussignacco, 78/11",ERGOPLAST S.R.L.,UD,PRADAMANO,"Via Cussignacco,78/11",46.026527,13.275572,POINT (13.275572 46.026527)
Autorizzazione AIA,"OSOPPO Via Europa Unita, 1",UD/AIA/113,Impianto di recupero materia ed energia da legno OSOPPO Via Europa Unita 1,FANTONI S.P.A.,UD,OSOPPO,"Rivoli Via Europa Unita,1",46.233359,13.079262,POINT (13.079262 46.233359)
Autorizzazione unica (ordinaria),"OSOPPO Via Europa Unita, 1",UD/AIA/113,Impianto di recupero materia ed energia da legno OSOPPO Via Europa Unita 1,FANTONI S.P.A.,UD,OSOPPO,"Rivoli Via Europa Unita,1",46.233359,13.079262,POINT (13.079262 46.233359)
Autorizzazione AIA,REANA DEL ROJALE Via Leonardo Da Vinci 11,UD/AIA/12,"Impianto di recupero scorie di fonderia REANA DEL ROIALE Via Leonardo da Vinci, 11 -AIA/12",F.A.R. - FONDERIE ACCIAIERIE ROIALE - S.P.A.,UD,REANA DEL ROIALE,"Via Leonardo da Vinci,11",46.142839,13.225203,POINT (13.225203 46.142839)
Autorizzazione unica (ordinaria),"GRADISCA D'ISONZO Via dell'Industria, 6",GO_GO008002,"Impianto di stoccaggio e selezione rifiuti vari GRADISCA D'ISONZO Via dell'Industria, 6",FENICE ECOLOGIA,GO,GRADISCA D'ISONZO,"Via dell'Industria,6",45.883355,13.477307,POINT (13.477307 45.883355)
Autorizzazione AIA,OSOPPO Zona Industriale Rivoli,UD/AIA/6,Attività di recupero metalli in acciaieria OSOPPO Zona Industriale Rivoli - AIA,FERRIERE NORD S.P.A.,UD,OSOPPO,"Zona Industriale di Rivoli Via delle Ferriere,9",46.235079,13.079876,POINT (13.079876 46.235079)
Procedura semplificata/AUA,REANA DEL ROJALE Via Carbonaria 60/2,COM_925,Impianto di recupero inerti da costruzione e demolizione REANA DEL ROJALE Via Carbonaria 60/2,FIMOTER S.N.C. DI CORNACCHINI CLAUDIO E LORIS,UD,REANA DEL ROIALE,"Rizzolo Via Carbonaria,60/2",46.121513,13.249512,POINT (13.249512 46.121513)
Procedura semplificata/AUA,"MANIAGO Via Ponte Giulio, Zona Industriale Campagna",PN-COM-199,"Impianto di recupero inerti MANIAGO Via Ponte Giulio, Zona Industriale Campagna","F.LLI CRISTOFOLI DI LIO, LUIGI & C. S.N.C.",PN,MANIAGO,Zona Industriale Campagna Via Ponte Giulio,46.146164,12.72292,POINT (12.72292 46.146164)
Procedura semplificata/AUA,"AZZANO DECIMO Via degli Artigiani,14 Corva",F093032-0016_003,"Impianto di messa in riserva raee AZZANO DECIMO Via degli Artigiani,14 Corva",F.LLI DE LUCA,PN,AZZANO DECIMO,"Corva Via degli Artigiani,14",45.910912,12.663627,POINT (12.663627 45.910912)
Autorizzazione unica (ordinaria),"CORMONS Strada Regionale n.56, km 21,5",F031002-0008_002,"Impianto di autodemolizione CORMONS Strada Regionale n.56, km 21,5",F.LLI GUERRA DI EDI GUERRA & C. - S.N.C.,GO,CORMONS,"Strada Regionale n.56 ""di Gorizia"",km 21,5",45.952439,13.440146,POINT (13.440146 45.952439)
Autorizzazione unica (ordinaria),FAGAGNA Via Comelli 37,UL-F030106-0006_003,"Impianto mobile Keestrack NV  Mod. Novum 4215 Matr. n. 301  FAGAGNA Via Comelli, 37",F.LLI VARUTTI S.R.L.,UD,FAGAGNA,"Via Francesco Comelli,37",,,
Autorizzazione unica (ordinaria),FAGAGNA Via Comelli 37,UD_XYMOB029,Impianto mobile di recupero inerti OM mat. 99B02300T FAGAGNA Via Comelli 37,F.LLI VARUTTI S.R.L.,UD,FAGAGNA,"Via Francesco Comelli,37",,,
Procedura semplificata/AUA,"FAGAGNA Strada Provinciale 10 Medio Friuli, km 12",COM_995,"Impianto di recupero inerti FAGAGNA Strada provinciale 10 Medio Friuli, km 12",F.LLI VARUTTI S.R.L.,UD,FAGAGNA,"Strada Provinciale n.10,km 12",46.085316,13.088472,POINT (13.088472 46.085316)
Autorizzazione AIA,PORDENONE Via Brentella,DIS267PN/AIA/26,Discarica per non pericolosi PORDENONE Via Brentella,FONDERIA SA.BI. S.P.A.,PN,PORDENONE,Via Brentella,45.977751,12.627201,POINT (12.627201 45.977751)
Autorizzazione AIA,"MANIAGO Via Ponte Giulio, 45",PN/AIA/78,"Attività di recupero metalli non ferrosi in fonderia MANIAGO Via Ponte Giulio, 45",FONDERIE PANDOLFO S.P.A.,PN,MANIAGO,"Zona Industriale Campagna Via Ponte Giulio,45",46.146222,12.71851,POINT (12.71851 46.146222)
Autorizzazione AIA,"MANZANO Via Udine, 40",UD/AIA/24,"Impianto di produzione laterizi MANZANO Via Udine, 40 -AIA-",FORNACI DI MANZANO S.P.A,UD,MANZANO,"Via Udine,40",45.993243,13.362681,POINT (13.362681 45.993243)
Procedura semplificata/AUA,"SAN GIORGIO DELLA RICHINVELDA, Via Truppe Alpine s.n.",F093038-0011_002,"Impianto di recupero inerti SAN GIORGIO DELLA RICHINVELDA Via Truppe Alpine,s.n.",FORNASIER SCAVI S.A.S. DI ALESSIO FORNASIER E IVAN FORNASIER,PN,SAN GIORGIO DELLA RICHINVELDA,"Via Truppe Alpine,s.n.",46.047736,12.854528,POINT (12.854528 46.047736)
Procedura semplificata/AUA,"ROVEREDO IN PIANO Via IV Novembre, 38",PN-COM-174,"Impianto di recupero inerti ROVEREDO IN PIANO Via IV Novembre, 38",FORNER GIUSEPPE S.R.L.,PN,ROVEREDO IN PIANO,"Lovera Via IV Novembre,38",45.994774,12.599355,POINT (12.599355 45.994774)
Autorizzazione unica (ordinaria),"RUDA Via Chiozza 4, La Fredda",UD_00003306,"Impianto di recupero metalli RUDA Via Chiozza 4, La Fredda",FRATELLI PETEAN S.N.C. DI PETEAN IVAN & WALMI,UD,RUDA,"La Fredda Via Luigi Chiozza,4",45.837207,13.375581,POINT (13.375581 45.837207)
Autorizzazione unica (ordinaria),TRIESTE Via Fianona 2,TS_TS006002,"Impianto di autodemolizione TRIESTE Via Fianona, 2",FRATELLI ZAMPA - S.N.C. DI MARCO E ROBERTO ZAMPA,TS,TRIESTE,"Via Fianona,2",45.626534,13.79628,POINT (13.79628 45.626534)
Autorizzazione unica (ordinaria),"CODROIPO Via Prati di Loreto, Zona Industriale Pannellia",F030109-0013_002,"Impianto sperimentale trattamento amianto CODROIPO Via Prati di Loreto, Zona Industriale Pannellia",FRIULANA COSTRUZIONI S.R.L.,UD,CODROIPO,Zona Industriale Pannellia Via Prati di Loreto,45.985562,12.933163,POINT (12.933163 45.985562)
Autorizzazione AIA,"CODROIPO Via Prati di Loreto, 34, Zona Industriale Pannellia",UD/AIA/100,"Impianto di deposito preliminare rifiuti contenenti amianto CODROIPO Via Prati di Loreto, 34, Zona Industriale Pannellia",FRIULANA COSTRUZIONI S.R.L.,UD,CODROIPO,"Zona Industriale Pannellia Via Prati di Loreto,34",45.984975,12.932995,POINT (12.932995 45.984975)
Procedura semplificata/AUA,"PALMANOVA Via I Maggio, 15",COM_454,"Impianto di recupero metalli PALMANOVA Via I Maggio, 15",FRIULANA METALLI - S.P.A.,UD,PALMANOVA,"Zona Industriale Via I Maggio,15",45.909657,13.291023,POINT (13.291023 45.909657)
Autorizzazione unica (ordinaria),"VARMO Via Santa Radegonda, 15",UD_XYMOB001,"Impianto mobile OM mat. 99A12900/2001 VARMO Via Santa Radegonda, 15",FRIULI FRANTUMAZIONI S.R.L. - IN LIQUIDAZIONE -,UD,VARMO,"Via Santa Radegonda,15",,,
Autorizzazione AIA,"POVOLETTO Via Giovanni Battista Maddalena, 25",UD/AIA/117,"Impianto di stoccaggio, selezione e recupero in AIA POVOLETTO Via Giovanni Battista Maddalena, 25",FRIUL JULIA APPALTI - S.R.L.,UD,POVOLETTO,"Zona Industriale di Grions del Torre Via Giovanni Battista Maddalena,25",46.093421,13.293958,POINT (13.293958 46.093421)
Autorizzazione AIA,"PRADAMANO Via Pier Paolo Pasolini, 35/11",UD/AIA/91,"Impianto di stoccaggio PRADAMANO Via Pier Paolo Pasolini, 35/11 - AIA/91",FRIUL JULIA APPALTI - S.R.L.,UD,PRADAMANO,"Via Pier Paolo Pasolini,35/11",46.024183,13.279045,POINT (13.279045 46.024183)
Autorizzazione AIA,"MANIAGO Località Cossana, Lotti 3-4-5",DIS138PN/AIA/27,"Discarica per non pericolosi in aia MANIAGO Località Cossana, Lotti 3-4-5",FRIUL JULIA APPALTI - S.R.L.,PN,MANIAGO,Località Cossana,46.117908,12.714693,POINT (12.714693 46.117908)
Procedura semplificata/AUA,"PORDENONE Via Castelfranco Veneto, 83/6",PN-COM-264,"Impianto di messa in riserva PORDENONE Via Castelfranco Veneto, 83/6",FRIULMETALLI DI BONDI JURY,PN,PORDENONE,"La Comina Via Castelfranco Veneto,83/6",45.986982,12.628111,POINT (12.628111 45.986982)
Procedura semplificata/AUA,MAJANO Località Ponte Ledra,COM_461,Impianto di recupero inerti MAJANO Località Ponte Ledra,FRUCCO ELIO & CRISTIAN S.N.C.,UD,MAJANO,Tiveriacco Località Ponte Ledra,46.197968,13.057101,POINT (13.057101 46.197968)
Procedura semplificata/AUA,"SAN DORLIGO DELLA VALLE Località Puglie di Domio, 222",F032006-0087_002,"Impianto di stoccaggio oli esausti SAN DORLIGO DELLA VALLE Località Puglie di Domio, 222",FULVIO BATTAGLIA,TS,SAN DORLIGO DELLA VALLE,"Località Puglie di Domio,222",45.616472,13.834359,POINT (13.834359 45.616472)
Autorizzazione unica (ordinaria),"PORCIA Via del Porto, 10",PN_PN032002,"Impianto di autodemolizione PORCIA Via del Porto, 10",GARAGE VENEZIA DI RUOSO MARIO,PN,PORCIA,"Via del Porto,10",45.968003,12.62772,POINT (12.62772 45.968003)
Autorizzazione unica (ordinaria),PORDENONE Via Nuova di Corva,CDR/PN033013,Centro di raccolta autorizzato PORDENONE Via Nuova di Corva,GEA - GESTIONI ECOLOGICHE E AMBIENTALI - S.P.A.,PN,PORDENONE,"Via Nuova di Corva,86",45.929524,12.654873,POINT (12.654873 45.929524)
Procedura semplificata/AUA,"AVIANO Via Monte Colombera, 22",F093018-0008_002,"Impianto di recupero non pericolosi AVIANO Via Monte Colombera, 22",GEES RECYCLING S.R.L.,PN,AVIANO,"Zona Industriale  Via Monte Colombera,22",46.061264,12.614901,POINT (12.614901 46.061264)
Procedura semplificata/AUA,TRIESTE via Errera 5,COM_601,Impianto recupero ceneri di carbone TRIESTE via Errera 5,GENERAL BETON TRIVENETA S.P.A.,TS,TRIESTE,"Via Carlo Errera,5",45.612825,13.799932,POINT (13.799932 45.612825)
Procedura semplificata/AUA,"SAN VITO AL TAGLIAMENTO Via Armenia, 11",PN-COM-209,"Impianto di recupero inerti SAN VITO AL TAGLIAMENTO Via Armenia, 15",GENERAL BETON TRIVENETA S.P.A.,PN,SAN VITO AL TAGLIAMENTO,"Zona Industriale Ponte Rosso Via Armenia,11",45.948963,12.887106,POINT (12.887106 45.948963)
Procedura semplificata/AUA,"GRADISCA D'ISONZO Via Palmanova, 35",COM_861,"Impianto di recupero inerti GRADISCA D'ISONZO Via Palmanova, 35",GENERAL BETON TRIVENETA S.P.A.,GO,GRADISCA D'ISONZO,"Via Palmanova,35",45.880726,13.47162,POINT (13.47162 45.880726)
Procedura semplificata/AUA,"FONTANAFREDDA Via Carducci, 108",PN-COM-271,"Impianto di recupero inerti FONTANAFREDDA Via Carducci, 108",GENERAL BETON TRIVENETA S.P.A.,PN,FONTANAFREDDA,"Villadolt Via Giosuè Carducci,108",45.982037,12.5822,POINT (12.5822 45.982037)
Procedura semplificata/AUA,VENZONE Via Zona Industriale Carnia 15,COM_535,Impianto di recupero ceneri VENZONE Via Zona Industriale Carnia 15,GENERAL BETON TRIVENETA S.P.A.,UD,VENZONE,"Via Zona Industriale Carnia,15",46.383411,13.132524,POINT (13.132524 46.383411)
Procedura semplificata/AUA,UDINE Via Argine del Torre Beivars,COM_323,Impianto di recupero ceneri UDINE Via Argine del Torre Beivars,GENERAL BETON TRIVENETA S.P.A.,UD,UDINE,Beivars Via Argine del Torre,46.091091,13.278372,POINT (13.278372 46.091091)
Procedura semplificata/AUA,"RONCHI DEI LEGIONARI Via Joze Srebernic, 18",COM_809,Impianto di recupero ceneri RONCHI DEI LEGIONARI Via Joze Srebernic 18,GENERAL BETON TRIVENETA S.P.A.,GO,RONCHI DEI LEGIONARI,"Via Joze Srebernic,18",45.821227,13.47398,POINT (13.47398 45.821227)
Procedura semplificata/AUA,"PREMARIACCO Via Armentarezza, Leproso",COM_313,"Impianto di recupero ceneri PREMARIACCO Via Armentarezza, Leproso",GENERAL BETON TRIVENETA S.P.A.,UD,PREMARIACCO,Leproso Via Armentarezza,46.032963,13.391047,POINT (13.391047 46.032963)
Procedura semplificata/AUA,PORDENONE Via della Tesa 1,PN-COM-34,Impianto di recupero ceneri PORDENONE Via della Tesa 1,GENERAL BETON TRIVENETA S.P.A.,PN,PORDENONE,"Via della Tesa,1",45.979843,12.639575,POINT (12.639575 45.979843)
Procedura semplificata/AUA,"MONTEREALE VALCELLINA Via dell'Industria, Grizzo",PN-COM-218,"Impianto di recupero ceneri MONTEREALE VALCELLINA Via dell'Industria, Grizzo",GENERAL BETON TRIVENETA S.P.A.,PN,MONTEREALE VALCELLINA,Grizzo Zona Industriale,46.134056,12.66029,POINT (12.66029 46.134056)
Procedura semplificata/AUA,MARTIGNACCO Via Maù 29,COM_307,"Impianto di recupero ceneri MARTIGNACCO Via Maù, 29",GENERAL BETON TRIVENETA S.P.A.,UD,MARTIGNACCO,"Via Maù,29",46.08408,13.146976,POINT (13.146976 46.08408)
Procedura semplificata/AUA,MAJANO Via San Martino,COM_568,Impianto di recupero ceneri MAJANO Via San Martino,GENERAL BETON TRIVENETA S.P.A.,UD,MAJANO,Via San Martino,46.172592,13.053153,POINT (13.053153 46.172592)
Procedura semplificata/AUA,"MAGNANO IN RIVIERA Via Tarcentina, 43",COM_296,"Impianto di recupero ceneri MAGNANO IN RIVIERA Via Tarcentina, 43",GENERAL BETON TRIVENETA S.P.A.,UD,MAGNANO IN RIVIERA,"Via Tarcentina,43",46.220375,13.18059,POINT (13.18059 46.220375)
Procedura semplificata/AUA,SAN VITO AL TORRE Strada Comunale Lazis Nogaredo al Torre,COM_322,Impianto di recupero ceneri leggere SAN VITO AL TORRE Strada Comunale Lazis Nogaredo al Torre,GENERAL BETON TRIVENETA S.P.A.,UD,SAN VITO AL TORRE,Nogaredo al Torre Strada Comunale Lazis,45.905113,13.381873,POINT (13.381873 45.905113)
Procedura semplificata/AUA,SAN DORLIGO DELLA VALLE Via Muggia 2,COM_671,Impianto di recupero ceneri di carbone SAN DORLIGO DELLA VALLE Via Muggia 2,GENERAL BETON TRIVENETA S.P.A.,TS,SAN DORLIGO DELLA VALLE,"Zona Industriale Est Via Muggia,2",45.606526,13.82488,POINT (13.82488 45.606526)
Procedura semplificata/AUA,"CASTIONS DI STRADA Via Udine, 104",COM_297,"Impianto di recupero ceneri CASTIONS DI STRADA Via Udine, 104",GENERAL BETON TRIVENETA S.P.A.,UD,CASTIONS DI STRADA,"Via Udine,104",45.920101,13.183068,POINT (13.183068 45.920101)
Procedura semplificata/AUA,SAN GIORGIO DELLA RICHINVELDA Via Selva di Sotto,PN-COM-20,Impianto di messa in riserva SAN GIORGIO DELLA RICHINVELDA Via Selva di Sotto,GENERAL BETON TRIVENETA S.P.A.,PN,SAN GIORGIO DELLA RICHINVELDA,Domanins Via Selva di Sotto,46.01789,12.795462,POINT (12.795462 46.01789)
Procedura semplificata/AUA,"AVIANO Via San Martino, 7/a",PN-COM-202,"Impianto di compostaggio verde AVIANO Via San Martino, 7/a",MARVER S.R.L.,PN,AVIANO,"Aviano Via San Martino,7/A",46.07208,12.614568,POINT (12.614568 46.07208)
Autorizzazione AIA,PORCIA Località Croce Vial,DIS152PN/AIA/28,Discarica per inerti e non pericolosi (amianto) PORCIA Località Croce Vial,GENERAL BETON TRIVENETA S.P.A.,PN,PORCIA,Località Croce Vial,45.986714,12.611132,POINT (12.611132 45.986714)
Autorizzazione unica (ordinaria),"TARCENTO Via dell'Unione Europea, 18",UD_XYMOB017,"Impianto mobile TAF mat. TS416CER TARCENTO Via dell'Unione Europea, 18",GEOSTREAM S.R.L.,UD,TARCENTO,"Via dell'Unione Europea,18",,,
Autorizzazione unica (ordinaria),"POVOLETTO Via Pramollo, 6",UD_XYMOB016,"Impianto mobile Doppstat mat. 1004 POVOLETTO Via Pramollo, 6",GESTECO S.P.A.,UD,POVOLETTO,"Zona Industriale di Grions del Torre Via Pramollo,6",,,
Autorizzazione unica (ordinaria),"POVOLETTO Via Pramollo, 6",UD_XYMOB010,"Impianto mobile Doppstadt mat. 026 POVOLETTO Via Pramollo, 6",GESTECO S.P.A.,UD,POVOLETTO,"Zona Industriale di Grions del Torre Via Pramollo,6",,,
Autorizzazione unica (ordinaria),"POVOLETTO Via Pramollo, 6",UD_XYMOB004,"Impianto mobile di recupero inerti Komatsu BR380JG-1EO matr. n. 2106 POVOLETTO Via Pramollo,6",GESTECO S.P.A.,UD,POVOLETTO,"Zona Industriale di Grions del Torre Via Pramollo,6",,,
Autorizzazione AIA,"SAVOGNA D'ISONZO Via San Michele, 347, Zona Industriale Località Sant'Andrea",GO/AIA/18,"Impianto di trattamento acque reflue industriali in aia SAVOGNA D'ISONZO Via San Michele, 347, Zona Industriale Località Sant'Andrea",GESTECO S.P.A.,GO,SAVOGNA D'ISONZO,"Zona Industriale Località Sant'Andrea Via San Michele,347",45.910429,13.589218,POINT (13.589218 45.910429)
Autorizzazione unica (ordinaria),"PRADAMANO Via Laipacco, 4",UD_00004363,"Impianto di recupero inerti PRADAMANO Via Laipacco, 4",GESTECO S.P.A.,UD,PRADAMANO,"Via Laipacco,4",46.059889,13.288823,POINT (13.288823 46.059889)
Autorizzazione unica (ordinaria),MONFALCONE Zona Industriale Lisert,GO_GO012003,Impianto di recupero fanghi di dragaggio MONFALCONE Zona Industriale Lisert,GESTECO S.P.A.,GO,MONFALCONE,Zona Industriale Lisert,45.78249,13.57117,POINT (13.57117 45.78249)
Autorizzazione AIA,"CIVIDALE DEL FRIULI Via Aquileia 23, Località Mus",DIS306UD/AIA/18,"Discarica per non pericolosi CIVIDALE DEL FRIULI Via Aquileia 23, Località Mus",GESTECO S.P.A.,UD,CIVIDALE DEL FRIULI,"Mus Via Aquileia,23",46.062437,13.418595,POINT (13.418595 46.062437)
Autorizzazione unica (ordinaria),"REMANZACCO Località Cerneglons, Argine Torrente Torre",DIS005UD/TEI,"Discarica per inerti REMANZACCO Località Cerneglons, Argine Torrente Torre",GESTECO S.P.A.,UD,REMANZACCO,Argine Torrente Torre Località Cerneglons,46.05329,13.301927,POINT (13.301927 46.05329)
Autorizzazione unica (ordinaria),"SAN VITO AL TAGLIAMENTO Via Bordano, 6",PN_XYMOB005,"Impianto mobile di recupero inerti M Track Giove matr. n. 99B09800T SAN VITO AL TAGLIAMENTO Via Bordano, 6",GHIAIE PONTE ROSSO S.R.L.,PN,SAN VITO AL TAGLIAMENTO,"Zona Industriale Ponte Rosso Via Bordano,6",45.943779,12.880433,POINT (12.880433 45.943779)
Procedura semplificata/AUA,"SAN VITO AL TAGLIAMENTO Viale Ponte Rosso, 36",PN-COM-223,"Impianto di recupero inerti SAN VITO AL TAGLIAMENTO Viale Ponte Rosso, 36",GHIAIE PONTE ROSSO S.R.L.,PN,SAN VITO AL TAGLIAMENTO,"Zona Industriale Ponte Rosso Zona Industriale Ponte Rosso,36",45.959281,12.896053,POINT (12.896053 45.959281)
Procedura semplificata/AUA,"SAN VITO AL TAGLIAMENTO Via Bordano, 6",PN-COM-196,"Impianto di recupero inerti SAN VITO AL TAGLIAMENTO Via Bordano, 6",GHIAIE PONTE ROSSO S.R.L.,PN,SAN VITO AL TAGLIAMENTO,"Zona Industriale Ponte Rosso Via Bordano,6",45.950584,12.888122,POINT (12.888122 45.950584)
Procedura semplificata/AUA,"SAN VITO AL TAGLIAMENTO Via Armenia, 15",PN-COM-214,"Impianto di recupero inerti SAN VITO AL TAGLIAMENTO Via Armenia, 15",GHIAIE PONTE ROSSO S.R.L.,PN,SAN VITO AL TAGLIAMENTO,"Zona Industriale Ponte Rosso Via Armenia,15",45.948394,12.888274,POINT (12.888274 45.948394)
Procedura semplificata/AUA,"FONTANAFREDDA Via Bellini, 37",PN-COM-65,"Impianto di recupero legno FONTANAFREDDA Via Bellini, 37",GIERRETI BREDA SOCIETA' A RESPONSABILITA' LIMITATA,PN,FONTANAFREDDA,"Vigonovo Via Vincenzo Bellini,37",45.993421,12.551589,POINT (12.551589 45.993421)
Procedura semplificata/AUA,CLAUT Via Zona Industriale Pinedo,PN-AUA-161,Impianto di recupero inerti CLAUT Zona Industriale Pinedo,GI.PI.GI. S.R.L.,PN,CLAUT,"Zona Industriale Pinedo,1",46.269234,12.459499,POINT (12.459499 46.269234)
Autorizzazione unica (ordinaria),"POLCENIGO Via Pordenone, 150/A",PN_PN031000,"Impianto di autodemolizione POLCENIGO Via Pordenone, 150/A",GOTTARDO DOMENICO,PN,POLCENIGO,"Via Pordenone,150/A",46.016352,12.513907,POINT (12.513907 46.016352)
Autorizzazione unica (ordinaria),"MANZANO Via Alessandro Volta, 10",UD_UD055000,"Impianto di incenerimento MANZANO Via Alessandro Volta, 10",GREENMAN S.R.L.,UD,MANZANO,"via A. Volta,10",45.985176,13.354764,POINT (13.354764 45.985176)
Autorizzazione AIA,"SAN VITO AL TAGLIAMENTO Via Gemona, 4, Zona Industriale Ponte Rosso",PN/AIA/29,"Impianto di stoccaggio pericolosi SAN VITO AL TAGLIAMENTO Via Gemona, 4, Zona Industriale Ponte Rosso",HERAMBIENTE SERVIZI INDUSTRIALI S.R.L.,PN,SAN VITO AL TAGLIAMENTO,"Zona Industriale Ponte Rosso Via Gemona,4",45.93446,12.885543,POINT (12.885543 45.93446)
Autorizzazione AIA,CORDENONS Località Crovoleit,DIS008PN/AIA/83,Discarica per non pericolosi CORDENONS Località Crovoleit,HERAMBIENTE S.P.A.,PN,CORDENONS,Località Crovoleit,46.014668,12.751987,POINT (12.751987 46.014668)
Autorizzazione unica (ordinaria),SAN DORLIGO DELLA VALLE Località Bagnoli della Rosandra,TS_TS004001,Impianto di stoccaggio SAN DORLIGO DELLA VALLE Località Bagnoli della Rosandra,HERVAT S.R.L.,TS,SAN DORLIGO DELLA VALLE,"Località Hervati,36",45.606682,13.847948,POINT (13.847948 45.606682)
Autorizzazione AIA,"TRIESTE Via Errera, 11",TS/AIA/5,"Impianto di incenerimento in aia TRIESTE Via Errera, 11",HESTAMBIENTE S.R.L.,TS,TRIESTE,"Via Carlo Errera,11",45.611583,13.799724,POINT (13.799724 45.611583)
Trattamento rifiuti liquidi art. 110 dlgs 152/06,"PORDENONE Via Savio, 13",F093033-0039,"Impianto di depurazione acque reflue urbane PORDENONE Via Savio, 13",HYDROGEA S.P.A.,PN,PORDENONE,"Via Luciano Savio,13",45.923383,12.649692,POINT (12.649692 45.923383)
Trattamento rifiuti liquidi art. 110 dlgs 152/06,PORDENONE Via Burida,F093033-0040,Impianto di depurazione acque reflue urbane PORDENONE Via Burida,HYDROGEA S.P.A.,PN,PORDENONE,Via Burida,45.949309,12.644749,POINT (12.644749 45.949309)
Autorizzazione unica (ordinaria),"SAN GIORGIO DI NOGARO Via Alessandro Volta, 13",UD_UD100003,"Impianto di selezione e stoccaggio SAN GIORGIO DI NOGARO Via Alessandro Volta, 13",I. BLU S.R.L.,UD,SAN GIORGIO DI NOGARO,"Zona Industriale Aussa-Corno Via Alessandro Volta,13",45.800744,13.213554,POINT (13.213554 45.800744)
Autorizzazione unica (ordinaria),"RIVE D'ARCANO Via Arcano Superiore, 12/1",UD_00008175,"Impianto di recupero raccolta differenziata RIVE D'ARCANO Via Arcano Superiore, 12/1",I. BLU S.R.L.,UD,RIVE D_ ARCANO,"Prè Longhi di Camin Località Arcano Superiore,12/1",46.149221,13.058695,POINT (13.058695 46.149221)
Procedura semplificata/AUA,"BRUGNERA Via Santi Rocco e Matteo, 17",PN-COM-133,"Impianto di recupero energetico BRUGNERA Via Santi Rocco e Matteo, 17",I.C.M. S.P.A.,PN,BRUGNERA,"Maron Via Santi Rocco e Matteo,17",45.898532,12.561473,POINT (12.561473 45.898532)
Procedura semplificata/AUA,"CERCIVENTO Via Gladegne, 19",F030088-0004_003,"Impianto di recupero inerti CERCIVENTO Via Gladegne, 19",I.C.M. S.R.L.,UD,CERCIVENTO,"Via Gladegne,19",46.523821,12.991787,POINT (12.991787 46.523821)
Autorizzazione unica (ordinaria),"BASILIANO Via Silvio Pellico, 2",UD_XYMOB024,"Impianto mobile di recupero inerti Allu mat. 09PF14038 BASILIANO Via Silvio Pellico, 2",I.CO.P. S.P.A.,UD,BASILIANO,"Via Silvio Pellico,2",,,
Autorizzazione unica (ordinaria),"LATISANA Via Lignano Nord, Paludo",UD_UD046000,"Impianto di trattamento rifiuti liquidi LATISANA Via Lignano Nord, Paludo",IDROSPURGHI PLAINO GIANNI S.N.C. DI PLAINO ALESSANDRO & C.,UD,LATISANA,Paludo Via Lignano Nord,45.77052,13.032569,POINT (13.032569 45.77052)
Autorizzazione unica (ordinaria),"UDINE Strada Provinciale 104, Località Buse dai Claps",DIS219UD,"Discarica per inerti UDINE Strada Provinciale 104, Località Buse dai Claps",IFIM S.R.L.,UD,UDINE,Buse dai Claps Strada Provinciale n.104,46.09283,13.288392,POINT (13.288392 46.09283)
Procedura semplificata/AUA,"PORCIA Via Cristoforo Colombo ,80",PN-COM-269,"Impianto di compostaggio verde PORCIA Via Cristoforo Colombo, 80",IL GIRASOLE DI COPAT STEFANO,PN,PORCIA,"Palse Via Cristoforo Colombo,80",45.946524,12.601331,POINT (12.601331 45.946524)
Autorizzazione unica (ordinaria),"TALMASSONS Via degli Artigiani, 21, Flumignano",UD_PRINT_001,"Impianto di recupero cartucce toner TALMASSONS Via degli Artigiani, 21",IMPRAM SRL,UD,TALMASSONS,"Flumignano Via degli Artigiani ,21",45.928712,13.145919,POINT (13.145919 45.928712)
Procedura semplificata/AUA,ROMANS D'ISONZO Via Aquileia,COM_981,Impianto di recupero ROMANS D'ISONZO Via Aquileia,IMPRESA CARLETTI VIRGINIO S.R.L.,GO,ROMANS D'ISONZO,Via Aquileia,45.879074,13.448092,POINT (13.448092 45.879074)
Procedura semplificata/AUA,"CIMOLAIS Zona Industriale di Pinedo, 8",PN-COM-239,"Impianto di recupero inerti CIMOLAIS Zona Industriale di Pinedo, 8",IMPRESA COSTRUZIONI FABRIS AMBROGIO S.R.L.,PN,CIMOLAIS,"Zona Industriale Pinedo,8",46.271687,12.457026,POINT (12.457026 46.271687)
Procedura semplificata/AUA,AVIANO Strada Comunale di Mezzo,PN-COM-278,Impianto di messa in riserva inerti AVIANO Strada Comunale di Mezzo,INERTI AVIANESE S.R.L.,PN,AVIANO,Via De Zan Strada Comunale di Mezzo,46.057831,12.621126,POINT (12.621126 46.057831)
Autorizzazione unica (ordinaria),"LATISANA Calle dell'Annunziata, 10",UD_XYMOB025,"Impianto mobile di recupero inerti OM mat. Tk105115 LATISANA Calle dell'Annunziata, 10",INNOTEC S.R.L.,UD,LATISANA,"Calle dell'Annunziata,10",,,
Trattamento rifiuti liquidi art. 110 dlgs 152/06,"STARANZANO Via del Mulinat, 30, Bistrigna",GO000165,"Impianto di depurazione acque reflue urbane STARANZANO Via del Mulinat, 30, Bistrigna",IRISACQUA S.R.L.,GO,STARANZANO,"Bistrigna Via del Mulinat,30",45.785239,13.500621,POINT (13.500621 45.785239)
Trattamento rifiuti liquidi art. 110 dlgs 152/06,"GORIZIA Via Ressel, 7",GO00163,"Impianto di depurazione acque reflue urbane GORIZIA Via Ressel, 7",IRISACQUA S.R.L.,GO,GORIZIA,"Via Giuseppe Ressel,7",45.915476,13.586681,POINT (13.586681 45.915476)
Procedura semplificata/AUA,"SAN VITO AL TAGLIAMENTO Via Clauzetto, 36",PN-COM-192,"Impianto di recupero plastica SAN VITO AL TAGLIAMENTO Via Clauzetto, 36",ISOLCONFORT S.R.L.,PN,SAN VITO AL TAGLIAMENTO,"Zona Industriale Ponte Rosso Via Clauzetto,36",45.949096,12.87529,POINT (12.87529 45.949096)
Autorizzazione unica (ordinaria),"MORARO Strada Provinciale n.4, Località Gesimis, 3",GO_GO013001,"Impianto di recupero rifiuti da raccolta differenziata MORARO Strada Provinciale 4, Località Gesimis 3",ISONTINA AMBIENTE S.R.L.,GO,MORARO,"Gesimis Strada Provinciale n.4,3",45.91888,13.499059,POINT (13.499059 45.91888)
Autorizzazione AIA,"MORARO Strada Provinciale n.4, Località Gesimis, 5",GO/AIA/21,"Impianto di compostaggio urbani in aia MORARO Strada Provinciale 4, Località Gesimis 5",ISONTINA AMBIENTE S.R.L.,GO,MORARO,"Gesimis Strada Provinciale n.4,5",45.91808,13.498853,POINT (13.498853 45.91808)
Autorizzazione unica (ordinaria),"SAN DORLIGO DELLA VALLE  Via Ressel, 2",F032004-0015_003,"Impianto di recupero SAN DORLIGO DELLA VALLE Via Ressel, 2",ITALFER S.R.L.,TS,SAN DORLIGO DELLA VALLE,"Via Giuseppe Ressel,2",45.610699,13.824663,POINT (13.824663 45.610699)
Procedura semplificata/AUA,"SAN VITO AL TAGLIAMENTO Via Partanna, 3",PN-COM-49,"Impianto di recupero legno SAN VITO AL TAGLIAMENTO Via Partanna, 3",ITAL WOOD S.R.L.,PN,SAN VITO AL TAGLIAMENTO,"Zona Industriale Ponte Rosso Via Partanna,3",45.943855,12.883402,POINT (12.883402 45.943855)
Procedura semplificata/AUA,"SACILE Via Malignani, 2",PN-COM-233,"Impianto di recupero cartucce toner SACILE Via Malignani, 2",JOLLY FORNITURE STAMPA DI MASUT LUCA,PN,SACILE,"Cornadella Via Arturo Malignani,2",45.942123,12.467616,POINT (12.467616 45.942123)
Procedura semplificata/AUA,"BRUGNERA Via Carpenè, 4",PN-COM-84,Impianto di recupero energetico legno BRUGNERA Via Carpenè 4,"JULIA ARREDA S.R.L. ""IN LIQUIDAZIONE""",PN,BRUGNERA,"Zona Industriale di Maron Via Antonio Carpenè,4",45.912951,12.55282,POINT (12.55282 45.912951)
Procedura semplificata/AUA,"SACILE Viale Europa, 7",PN-COM-215,"Impianto di recupero plastica SACILE Viale Europa, 7",KARTON S.P.A.,PN,SACILE,"Cornadella Viale Europa,7",45.942451,12.464106,POINT (12.464106 45.942451)
Procedura semplificata/AUA,"SAN GIORGIO DI NOGARO Via Melaria, 5",COM_1039,"Impianto di recupero plastica 2 SAN GIORGIO DI NOGARO Via Melaria, 5",KB PLAST S.R.L.,UD,SAN GIORGIO DI NOGARO,"Zona Industriale Aussa-Corno Via Melaria,5",45.810616,13.218983,POINT (13.218983 45.810616)
Autorizzazione unica (ordinaria),"MUGGIA Via Flavia di Aquilinia, 24/1",TS_TS003003,"Impianto di recupero acque di falda MUGGIA Via Flavia di Aquilinia, 24/1",KRI S.P.A.,TS,MUGGIA,"Via Flavia di Aquilinia,24/1",45.605566,13.798024,POINT (13.798024 45.605566)
Procedura semplificata/AUA,"MONFALCONE Via Grota del Diau Zot, 1",COM_902,"Impianto di recupero metalli MONFALCONE Via Grota del Diau Zot, 1",LAFFRANCHINI S.R.L.,GO,MONFALCONE,"Zona Industriale Lisert Via Grota del Diau Zot,1",45.790044,13.574257,POINT (13.574257 45.790044)
Procedura semplificata/AUA,"PASIANO DI PORDENONE Via Gallopat, 29",PN-COM-277,"Impianto di recupero energetico PASIANO DI PORDENONE Via Gallopat, 29",L.A.P.M. S.R.L.,PN,PASIANO DI PORDENONE,"Cecchini Via Gallopat,29",45.867303,12.623102,POINT (12.623102 45.867303)
Procedura semplificata/AUA,"CERVIGNANO DEL FRIULI Via della Ferrovia Vecchia, 9/2",COM_528,"Impianto di recupero plastica CERVIGNANO DEL FRIULI Via della Ferrovia Vecchia, 9/2",LA RICARICA DI CRISNARO MAURIZIO & C. S.A.S.,UD,CERVIGNANO DEL FRIULI,"Via della Ferrovia Vecchia,9/2",45.809216,13.35665,POINT (13.35665 45.809216)
Procedura semplificata/AUA,"PAVIA DI UDINE Via Peraria, 12/A",COM_998,"Impianto di recupero legno PAVIA DI UDINE Via Peraria, 12/A",LA.SO.LE. EST S.p.A.,UD,PAVIA DI UDINE,"Zona Artigianale Industriale di Percoto Via Peraria,12/A",45.976807,13.312585,POINT (13.312585 45.976807)
Autorizzazione unica (ordinaria),"PORDENONE Via Polcenigo, 1",PN_PN033002,"Impianto di autodemolizione PORDENONE Via Polcenigo, 1",LEIBALLI ANTONIO EREDI DI BARBIERI FRANCO & C. SOCIETA' IN ACCOMANDITA SEMPLICE,PN,PORDENONE,"Via Polcenigo,1",45.970959,12.633234,POINT (12.633234 45.970959)
Procedura semplificata/AUA,SPILIMBERGO Via Zona Industriale sul Cosa 8,PN-COM-200,Impianto di recupero inerti SPILIMBERGO Via Zona Industriale sul Cosa 8,LENARDUZZI ETTORE E SILVANO & C. S.N.C.,PN,SPILIMBERGO,"Via Zona Industriale sul Cosa,8",46.106683,12.877106,POINT (12.877106 46.106683)
Autorizzazione unica (ordinaria),"SAN QUIRINO Via Roiata, 19",PN_PN040002,"Impianto di messa in riserva e selezione rifiuti SAN QUIRINO Via Roiata, 19",LF JULIA SRL,PN,SAN QUIRINO,"Via Roiata,19",46.027798,12.668719,POINT (12.668719 46.027798)
Procedura semplificata/AUA,"SESTO AL REGHENA Via Cornia, 1/A",PN-COM-263,"Impianto di messa in riserva SESTO AL REGHENA Via Cornia,1/A",LIDL ITALIA S.R.L.,PN,SESTO AL REGHENA,"Via Cornia,1/A",45.862446,12.780762,POINT (12.780762 45.862446)
Trattamento rifiuti liquidi art. 110 dlgs 152/06,SACILE Via Don Pietro Benvenuto,F093007-0020,Impianto di depurazione acque reflue urbane SACILE Via Don Pietro Benvenuto,LIVENZA TAGLIAMENTO ACQUE S.P.A.,PN,SACILE,Viale Don Pietro Benvenuto,45.944326,12.504725,POINT (12.504725 45.944326)
Autorizzazione unica (ordinaria),"TRIESTE Via Pietraferrata, 30",TS_TS003002,"Impianto di recupero di rifiuti speciali e urbani/frazione secca TRIESTE Via Pietraferrata, 30",LOGICA S.R.L.,TS,TRIESTE,"Via Pietraferrata,30",45.6199,13.8078,POINT (13.8078 45.6199)
Procedura semplificata/AUA,"MORTEGLIANO Via Buiatti, 17",UL-COM_388_003,"Impianto di recupero energetico MORTEGLIANO Via Valentino Buiatti, 17",LOMBARDO S.P.A.,UD,MORTEGLIANO,"Via Valentino Buiatti,17",45.941167,13.170884,POINT (13.170884 45.941167)
Procedura semplificata/AUA,"MUGGIA Via Canneto, 2/A",COM_623_003,"Impianto di messa in riserva rifiuti vari MUGGIA Via Canneto, 2/A",LORENZI ERNESTO & C. S.A.S.,TS,MUGGIA,"Vignano Via del Canneto,2/A",45.558681,13.811602,POINT (13.811602 45.558681)
Autorizzazione unica (ordinaria),"AZZANO DECIMO Via del Bosc, 1",PN_XYMOB0017,"Impianto mobile di recupero rifiuti non pericolosi modello Kleemann MC 110 Revo AZZANO DECIMO Via del Bosc, 1",LORENZON F.LLI S.R.L.,PN,AZZANO DECIMO,"Via del Bosc,1",45.891291,12.70785,POINT (12.70785 45.891291)
Autorizzazione unica (ordinaria),PORDENONE Via delle Villotte 9,F093005-0007_002,Impianto di recupero inerti PORDENONE Via delle Villotte 9,LORENZON F.LLI S.R.L.,PN,PORDENONE,"Via delle Villotte,9",46.00201,12.635511,POINT (12.635511 46.00201)
Procedura semplificata/AUA,"AZZANO DECIMO Via del Bosc, 1",PN-COM-171,"Impianto di recupero inerti AZZANO DECIMO Via del Bosc, 1",LORENZON F.LLI S.R.L.,PN,AZZANO DECIMO,"Via del Bosc,1",45.892097,12.707244,POINT (12.707244 45.892097)
Autorizzazione unica (ordinaria),"PORDENONE Via Castelfranco Veneto, 81/4",PNESR1980,"Impianto di recupero metalli PORDENONE Via Castelfranco Veneto, 81/4",MAFF 5 SRL,PN,PORDENONE,"La Comina Via Castelfranco Veneto,81/4",45.987815,12.625284,POINT (12.625284 45.987815)
Procedura semplificata/AUA,"SAVOGNA D'ISONZO Via Malnisce, 3/C",COM_878,"Impianto di recupero inerti SAVOGNA D'ISONZO Via Malnisce, 3/c",MALIC MARINO - SCAVI,GO,SAVOGNA D'ISONZO,"Via Malnisce,3/C",45.898815,13.573329,POINT (13.573329 45.898815)
Procedura semplificata/AUA,"VALVASONE ARZENE Via Grava, Area Poligono",PN-COM-262,"Impianto di recupero inerti VALVASONE ARZENE Via Grava, Area Poligono",MANIAGO ALESSANDRO,PN,VALVASONE ARZENE,Area Poligono Via Grava,46.005589,12.830278,POINT (12.830278 46.005589)
Autorizzazione unica (ordinaria),"GORIZIA Località Case dell'Eremita, 5",F031007-0018_002,"Impianto di autodemolizione GORIZIA Località Case dell'Eremita, 5",MANIERO MICHELE,GO,GORIZIA,"Località Case dell'Eremita,5",45.914056,13.610932,POINT (13.610932 45.914056)
Procedura semplificata/AUA,CASSACCO Via Marinoni,F030019-0005_003,Impianto di messa in riserva verde CASSACCO Via Marinoni,MANSUTTI GIANFRANCO E FIGLIO SNC,UD,CASSACCO,Via Gian Giacomo Marinoni,46.169646,13.205084,POINT (13.205084 46.169646)
Procedura semplificata/AUA,"SPILIMBERGO Zona Industriale Nord, 36/A",PN-COM-226,"Impianto di messa in riserva SPILIMBERGO Zona Industriale Nord, 36/A",MANSUTTI RECYCLING DI MANSUTTI JONNI,PN,SPILIMBERGO,"Zona Industriale Nord,36/A",46.139908,12.872179,POINT (12.872179 46.139908)
Procedura semplificata/AUA,"TRIESTE Androna Campo Marzio, 2/c",COM_629,"Impianto di messa in riserva TRIESTE Androna Campo Marzio, 2/c",MARIO NOVATO,TS,TRIESTE,"Androna Campo Marzio,2/C",45.644434,13.75719,POINT (13.75719 45.644434)
Procedura semplificata/AUA,"BRUGNERA Via Taglio, 60",PN-COM-279,"Impianto di recupero energetico BRUGNERA Via Taglio, 60",MARONESE INTERNATIONAL S.R.L.,PN,BRUGNERA,"Maron Via Taglio,60",45.909355,12.557023,POINT (12.557023 45.909355)
Procedura semplificata/AUA,"MORSANO AL TAGLIAMENTO Via Santa Elisabetta, 9",PN-COM-201,"Impianto di recupero inerti MORSANO AL TAGLIAMENTO Via Santa Elisabetta, 9",MARTINIS RECYCLING DI MARTINIS GRAZIANO,PN,MORSANO AL TAGLIAMENTO,"San Paolo Via Santa Elisabetta,9",45.87244,12.941111,POINT (12.941111 45.87244)
Procedura semplificata/AUA,BUTTRIO Strada comunale di Pavia,COM_1009,Impianto di recupero inerti BUTTRIO Strada comunale di Pavia,MERLINO GUIDO & C. SNC DI MERLINO LUCIANO & MAURO,UD,BUTTRIO,Strada Comunale di Pavia,46.005024,13.320472,POINT (13.320472 46.005024)
Procedura semplificata/AUA,"TRIESTE Via Caboto, 20",COM_626,"Impianto di recupero metalli TRIESTE Via Caboto, 20",METFER SRL,TS,TRIESTE,"Via Giovanni e Sebastiano Caboto,20",45.617774,13.807387,POINT (13.807387 45.617774)
Autorizzazione unica (ordinaria),TRIESTE Strada della Rosandra,TS_TS00649,Impianto di recupero metalli TRIESTE Strada della Rosandra,METFER SRL,TS,TRIESTE,Strada della Rosandra,45.612724,13.824481,POINT (13.824481 45.612724)
Procedura semplificata/AUA,"VIVARO Via San Marco, 28",PN-COM-281,"Impianto di recupero VIVARO Via San Marco, 28",MICRO METAL SRL,PN,VIVARO,"Via San Marco,28",46.091816,12.766028,POINT (12.766028 46.091816)
Procedura semplificata/AUA,"AZZANO DECIMO Via Passo, 68",PN-COM-7,"Impianto di recupero metalli AZZANO DECIMO Via Passo, 68",MINUDEL MAURO,PN,AZZANO DECIMO,"Corva Via Passo,68",45.915338,12.675944,POINT (12.675944 45.915338)
Procedura semplificata/AUA,"PORDENONE Via Maestra Vecchia, 40",UL-PN-COM-31_002,"Impianto di recupero metalli PORDENONE Via Maestra Vecchia, 40",MITTELFER SRL,PN,PORDENONE,"stradario 02130 Via Maestra Vecchia,40",45.978266,12.667215,POINT (12.667215 45.978266)
Procedura semplificata/AUA,"PASIANO DI PORDENONE Via Gallopat, 33",PN-COM-123,"Impianto di recupero energetico PASIANO DI PORDENONE Via Gallopat, 33",MOBILIFICIO SAN GIACOMO S.P.A.,PN,PASIANO DI PORDENONE,"Cecchini Via Gallopat,33",45.875666,12.619101,POINT (12.619101 45.875666)
Procedura semplificata/AUA,"PRATA DI PORDENONE Via Manin, 34",PN-COM-118,"Impianto di recupero energetico PRATA DI PORDENONE Via Manin, 34","MOBILIFICIO SANTA LUCIA S.P.A. IN FORMA ABBREVIATA ""SANTA LUCIA MOBILI S.P.A.""",PN,PRATA DI PORDENONE,"Via Daniele Manin,34",45.890771,12.593463,POINT (12.593463 45.890771)
Procedura semplificata/AUA,"PRATA DI PORDENONE Via Casali Sagree, 21",PN-COM-229,"Impianto di recupero energetico PRATA DI PORDENONE Via Casali Sagree, 21","MOBILIFICIO SANTA LUCIA S.P.A. IN FORMA ABBREVIATA ""SANTA LUCIA MOBILI S.P.A.""",PN,PRATA DI PORDENONE,"Villanova Via Casali Sagree,21",45.886315,12.56896,POINT (12.56896 45.886315)
Autorizzazione unica (ordinaria),"FARRA D'ISONZO Via Gorizia, 142",GO_GO005000,"Impianto di autodemolizione FARRA D'ISONZO Via Gorizia, 142",MODULOR DI GIUSTIZIERI FABRIZIO,GO,FARRA D'ISONZO,"Via Gorizia,142",45.912185,13.558281,POINT (13.558281 45.912185)
Autorizzazione unica (ordinaria),CARLINO Strada Oltregorgo,UL-F030056-0003_002,Impianto di recupero sabbie per ripascimento vasche di allevamento vongole CARLINO Strada Oltregorgo,MOLLUSCHICOLTURA MARANESE SOCIETA' AGRICOLA A RESPONSABILITA' LIMITATA,UD,CARLINO,Valle Spingion Strada Oltregorgo,45.767224,13.179474,POINT (13.179474 45.767224)
Procedura semplificata/AUA,"BUJA Via Precariacco, 2",F030013-0014_002,"Impianto di recupero inerti BUJA Via Precariacco, 2",MORENICA ASFALTI DI MIANI LAURA,UD,BUIA,"Casasola Via Precariacco,2",46.195969,13.090276,POINT (13.090276 46.195969)
Procedura semplificata/AUA,"PORDENONE Via Roveredo, Località Comina",PN-COM-190,Intervento di ripristino ambientale PORDENONE Via Roveredo,MORETTO GIUSEPPE S.R.L.,PN,PORDENONE,La Comina Via Roveredo,45.989693,12.639019,POINT (12.639019 45.989693)
Autorizzazione unica (ordinaria),PORDENONE Viale Grande 30/A,PN_XYMOB000,Impianto mobile di recupero inerti OM TRACK ARGO PORDENONE Viale Grande 30/A,MORETTO GIUSEPPE S.R.L.,PN,PORDENONE,"Viale Grande,30/A",45.981483,12.667997,POINT (12.667997 45.981483)
Procedura semplificata/AUA,PORDENONE Via Roveredo,PN-COM-184,Impianto di recupero inerti PORDENONE Via Roveredo,MORETTO GIUSEPPE S.R.L.,PN,PORDENONE,La Comina Via Roveredo,45.988705,12.639127,POINT (12.639127 45.988705)
Autorizzazione unica (ordinaria),"PORDENONE Via Maestra Vecchia, 7",PN_XYMOB002,"Impianto mobile  REV GCS 90 PORDENONE Via Maestra Vecchia, 7",MOZZON DANIELE S.R.L.,PN,PORDENONE,"Via Maestra Vecchia,7",45.976849,12.655306,POINT (12.655306 45.976849)
Procedura semplificata/AUA,ZOPPOLA Via Prà di Risi,PN-COM-274,Impianto di recupero inerti ZOPPOLA Via Prà di Risi,MOZZON DANIELE S.R.L.,PN,ZOPPOLA,Prà di Risi Via Prà di Risi,45.954731,12.735128,POINT (12.735128 45.954731)
Procedura semplificata/AUA,"MORSANO AL TAGLIAMENTO Via delle Rogge, San Paolo",PN-COM-235,"Impianto di compostaggiio verde MORSANO AL TAGLIAMENTO Via delle Rogge, San Paolo",NADALIN VALERIO,PN,MORSANO AL TAGLIAMENTO,San Paolo Via delle Rogge,45.872051,12.933955,POINT (12.933955 45.872051)
Autorizzazione unica (ordinaria),"PASIAN DI PRATO Via Colloredo, 80",F030129-0053_002,"Impianto di messa in riserva e preparazione per il riutilizzo PASIAN DI PRATO Via Colloredo, 80",NASCENTE -SOCIETA' COOPERATIVA SOCIALE A R.L.,UD,PASIAN DI PRATO,"via Colloredo,80",46.051796,13.178315,POINT (13.178315 46.051796)
Autorizzazione unica (ordinaria),"SAN GIOVANNI AL NATISONE Località La Brava, Polveriera",UD_UD137003,"Impianto di recupero inerti SAN GIOVANNI AL NATISONE Località La Brava, Polveriera",NATISON SCAVI S.R.L.,UD,SAN GIOVANNI AL NATISONE,Polveriera Località La Brava,45.951225,13.387656,POINT (13.387656 45.951225)
Autorizzazione AIA,"PALMANOVA Via Marinoni, 12",UD/AIA/94,"Impianto di recupero ed eliminazione rifiuti pericolosi PALMANOVA Via Marinoni, 12",NEDA AMBIENTE FVG S.R.L.,UD,PALMANOVA,"Via Gian Giacomo Marinoni,12",45.90452,13.291674,POINT (13.291674 45.90452)
Autorizzazione unica (ordinaria),UDINE Via Stiria,F030129-0070_002,Impianto di stoccaggio spazzamento stradale UDINE Via Stiria,NET - S.P.A.,UD,UDINE,Via Stiria,46.040457,13.241862,POINT (13.241862 46.040457)
Autorizzazione AIA,"SAN GIORGIO DI NOGARO Via Alessandro Volta, 11, Zona Industriale Aussa Corno",UD/AIA/133,"Impianto di selezione, cernita rifiuti urbani e compostaggio verde SAN GIORGIO DI NOGARO Via Alessandro Volta, 11, Zona Industriale Aussa Corno",NET - S.P.A.,UD,SAN GIORGIO DI NOGARO,"Zona Industriale Aussa-Corno Via Alessandro Volta,11",45.801697,13.21441,POINT (13.21441 45.801697)
Autorizzazione unica (ordinaria),"UDINE Via Gonars, 40",UD129002_007,"Centro di trasferenza UDINE Via Gonars, 40",NET - S.P.A.,UD,UDINE,"Via Gonars,40",46.027529,13.232238,POINT (13.232238 46.027529)
Procedura semplificata/AUA,"TOLMEZZO Via Paluzza, 67",COM_497,"Impianto di recupero inerti TOLMEZZO Via Paluzza, 67",SPIGA S.R.L..,UD,TOLMEZZO,"Via Paluzza,67",46.416782,13.016825,POINT (13.016825 46.416782)
Autorizzazione AIA,"SAN VITO AL TAGLIAMENTO Via Carnia, 9",PN/AIA/95,"Impianto di gestione rifiuti urbani e speciali non pericolosi e stoccaggio RAEE SAN VITO AL TAGLIAMENTO Via Carnia, 9",NEW ENERGY FVG SRL,PN,SAN VITO AL TAGLIAMENTO,"Zona Industriale Ponte Rosso Via Carnia,9",45.939836,12.885611,POINT (12.885611 45.939836)
Procedura semplificata/AUA,"BUJA Via Polvaries, 43",COM_293,"Impianto di recupero inerti BUJA Via Polvaries, 43",NICOLOSO SCAVI S.N.C. DI NICOLOSO ARMANDO & FIGLI,UD,BUIA,"Zona Industriale Polvaries Via Polvaries,43",46.209946,13.144058,POINT (13.144058 46.209946)
Procedura semplificata/AUA,REMANZACCO Via Oselin,F030091-0013_002,Impianto di messa in riserva inerti REMANZACCO Via Oselin,NOCENT RODOLFO,UD,REMANZACCO,Via Oselin,46.073261,13.30108,POINT (13.30108 46.073261)
Autorizzazione AIA,"SAN GIORGIO DI NOGARO Via Enrico Fermi, 33, Zona Industriale Aussa Corno",UD/AIA/15,"Attività di recupero metalli in acciaieria SAN GIORGIO DI NOGARO Via Enrico Fermi, 33, Zona Industriale Aussa Corno",NUNKI STEEL S.P.A.,UD,SAN GIORGIO DI NOGARO,"Zona Industriale Aussa-Corno Via Enrico Fermi,33",45.787828,13.231422,POINT (13.231422 45.787828)
Autorizzazione unica (ordinaria),"FONTANAFREDDA Via Lirutti, 117",PN_XYMOB009,Impianto mobile SUPERTRACK 504 PCV matr. 614110309 FONTANAFREDDA Via Lirutti 117,NUOVA CARLET S.R.L.,PN,FONTANAFREDDA,"Nave Via Gian Giacomo Lirutti,117",45.982351,12.500117,POINT (12.500117 45.982351)
Autorizzazione unica (ordinaria),"FONTANAFREDDA Via Lirutti, 117",PN_XYMOB004,Impianto mobile Franzoi Tri 1611 Fp FONTANAFREDDA Via Lirutti 117,NUOVA CARLET S.R.L.,PN,FONTANAFREDDA,"Nave Via Gian Giacomo Lirutti,117",45.982351,12.500117,POINT (12.500117 45.982351)
Procedura semplificata/AUA,"FONTANAFREDDA Via Lirutti, 117",PN-COM-272,Impianto di recupero inerti FONTANAFREDDA Via Lirutti 117,NUOVA CARLET S.R.L.,PN,FONTANAFREDDA,"Nave Via Gian Giacomo Lirutti,117",45.989007,12.499333,POINT (12.499333 45.989007)
Autorizzazione unica (ordinaria),MANZANO Via Trieste 4,UD_00003500,Impianto di stoccaggio e selezione rifiuti vari MANZANO Via Trieste 4,PACORIG F.LLI S.A.S. DI BRUNO PACORIG & C.,UD,MANZANO,"Via Trieste,4",45.983929,13.376784,POINT (13.376784 45.983929)
Procedura semplificata/AUA,"MONFALCONE Via Grado, 64",COM_951,"Impianto di recupero metalli MONFALCONE Via Grado, 64",PAHOR D.O.O. S.R.L.,GO,MONFALCONE,"Via Grado,64",45.7978,13.522419,POINT (13.522419 45.7978)
Procedura semplificata/AUA,PALUZZA Via Nazionale,COM_466,Impianto di recupero inerti PALUZZA Via Nazionale,PALLADINO ALEX,UD,PALUZZA,Zona Industriale Manacces - Lotto 5 Via Nazionale,46.518868,13.001882,POINT (13.001882 46.518868)
Autorizzazione unica (ordinaria),"UDINE Via della Valle, 55",UD_00002707,"Impianto di autodemolizione UDINE Via della Valle, 55",PASQUALATTO FRANCESCO DI PASQUALATTO ALESSANDRO,UD,UDINE,"Via della Valle,55",46.050447,13.221637,POINT (13.221637 46.050447)
Procedura semplificata/AUA,REANA DEL ROJALE Via Carbonaria 60/1,COM_422,Impianto di recupero inerti REANA DEL ROJALE Via Carbonaria 60/1,PERESSUTTI & C. - S.N.C.,UD,REANA DEL ROIALE,"Rizzolo Via Carbonaria,60/1",46.121662,13.249737,POINT (13.249737 46.121662)
Procedura semplificata/AUA,ARBA Strada Comunale del Molino,PN-COM-207,Impianto di recupero inerti ARBA Strada Comunale del Molino,PETRUCCO S.R.L.,PN,ARBA,San Rocco Via del Mulinat,46.141754,12.784136,POINT (12.784136 46.141754)
Procedura semplificata/AUA,"PINZANO AL TAGLIAMENTO Via Roma, 107",PN-COM-193,"Impianto di messa in riserva metalli PINZANO AL TAGLIAMENTO Via Roma, 107",POCI ROBERTO,PN,PINZANO AL TAGLIAMENTO,"Valeriano Via Roma,107",46.16605,12.917529,POINT (12.917529 46.16605)
Autorizzazione unica (ordinaria),"PORDENONE Via delle Villotte, 18",PN_PN033011,"Impianto di recupero rifiuti e RAEE PORDENONE Via delle Villotte, 18",PR ECOLOGY S.R.L.,PN,PORDENONE,"Via delle Villotte,18",45.999601,12.638927,POINT (12.638927 45.999601)
Procedura semplificata/AUA,"BRUGNERA Via Puja, 7",PN-COM-265,"Impianto di recupero energetico BRUGNERA Via Puja, 7",PRESOTTO INDUSTRIE MOBILI S.P.A.,PN,BRUGNERA,"Maron Via Puja,7",45.892391,12.559615,POINT (12.559615 45.892391)
Autorizzazione unica (ordinaria),"MONFALCONE Via Terme Romane, 5",GO_GO025006,"Impianto di deposito preliminare MONFALCONE Via Terme Romane, 5",PROGETTO MONFALCONE S.R.L.,GO,MONFALCONE,"Via Terme Romane,5",45.791153,13.56161,POINT (13.56161 45.791153)
Autorizzazione unica (ordinaria),MUGGIA Via Cavalieri di Malta,TS_TS003008,Impianto messa in riserva e preparazione per il riutilizzo RAEE MUGGIA Via Cavalieri di Malta,QUERCIAMBIENTE SOCIETA' COOPERATIVA SOCIALE,TS,MUGGIA,"Via Cavalieri di Malta,3",45.594492,13.801636,POINT (13.801636 45.594492)
Procedura semplificata/AUA,UDINE Via Slovenia 17,COM_562,Impianto di recupero metalli UDINE Via Slovenia 17,RAFFIN S.R.L.,UD,UDINE,"Zona Artigianale Udinese Via Slovenia,17",46.031532,13.24007,POINT (13.24007 46.031532)
Autorizzazione unica (ordinaria),UDINE Via Attimis 73,UD_00003072,Impianto di recupero metalli UDINE Via Attimis 73,RAFFIN S.R.L.,UD,UDINE,"Via Attimis,73",46.049795,13.219088,POINT (13.219088 46.049795)
Procedura semplificata/AUA,"CORDENONS Via della Carbonera, 49",F093017-0017_002,"Impianto di compostaggio CORDENONS Via della Carbonera, 49",RAGOGNA CLAUDIO & SARTORI PIA S.N.C.,PN,CORDENONS,"Via della Carbonera,49",46.012239,12.705628,POINT (12.705628 46.012239)
Procedura semplificata/AUA,"TAVAGNACCO Via Paderno, 3",COM_271,"Impianto di recupero metalli TAVAGNACCO Via Paderno, 3",R. CASINI S.R.L.,UD,TAVAGNACCO,"Via Paderno,3",46.093769,13.216499,POINT (13.216499 46.093769)
Autorizzazione AIA,"OVARO Via Cartiera, 27",UD/AIA/4,"Impianto di stoccaggio presso cartiera OVARO Via Cartiera, 27",R.D.M. OVARO S.p.A.,UD,OVARO,"Via Cartiera,27",46.481454,12.863063,POINT (12.863063 46.481454)
Autorizzazione AIA,"MANIAGO Via Ponte Giulio,62",PN/AIA/74,"Impianto di recupero in aia MANIAGO Via Ponte Giulio,62",RECYCLA S.R.L.,PN,MANIAGO,"Zona Industriale Campagna Via Ponte Giulio,62",46.148593,12.722231,POINT (12.722231 46.148593)
Procedura semplificata/AUA,"FONTANAFREDDA Via Percoto, 33",PN-COM-70,"Impianto di stoccaggio cartucce toner FONTANAFREDDA Via Percoto, 33",REPLAY RIG. MANO COMM. DI GIORDANI FRANCA,PN,FONTANAFREDDA,"Ronche Via Caterina Percoto,33",45.974792,12.589678,POINT (12.589678 45.974792)
Procedura semplificata/AUA,"MARTIGNACCO Via Maù, 21/5",COM_530,"Impianto di recupero inerti MARTIGNACCO Via Maù, 21/5",SPIGA S.R.L..,UD,MARTIGNACCO,"Via Maù,21/5",46.084431,13.145581,POINT (13.145581 46.084431)
Autorizzazione unica (ordinaria),"MONRUPINO Area autoporto, Fernetti",F032002-0005_003,"Impianto di stoccaggio MONRUPINO Area autoporto, Fernetti",RICICLO SYSTEM SOCIETA' A RESPONSABILITA' LIMITATA,TS,MONRUPINO,Fernetti Area Autoporto,45.69858,13.820891,POINT (13.820891 45.69858)
Procedura semplificata/AUA,"SEQUALS Via Roma, 2",F093042-0009_002,"Impianto di messa in riserva SEQUALS Via Roma, 2",RIOLI S.R.L.,PN,SEQUALS,"Via Roma,2",46.160993,12.835309,POINT (12.835309 46.160993)
Procedura semplificata/AUA,PORDENONE Viale Venezia 123,PN-COM-28,"Impianto di recupero metalli PORDENONE Viale Venezia, 123",ROTT-FERR S.R.L.,PN,PORDENONE,"Viale Venezia,123",45.97192,12.664973,POINT (12.664973 45.97192)
Procedura semplificata/AUA,"PAVIA DI UDINE Viale Grado, 142",COM_495,"Impianto di recupero metalli 67 PAVIA DI UDINE Viale Grado, 142",ROTT-FERR S.R.L.,UD,PAVIA DI UDINE,"Lauzacco Viale Grado,142",45.995708,13.276763,POINT (13.276763 45.995708)
Autorizzazione unica (ordinaria),"PAVIA DI UDINE Via Sammardenchia, Risano",F030101-0023_002,"Impianto di compostaggio verde PAVIA DI UDINE Via Sammardenchia, Risano",SAGER S.R.L.,UD,PAVIA DI UDINE,Risano Via Sammardenchia,45.978556,13.242946,POINT (13.242946 45.978556)
Procedura semplificata/AUA,"VALVASONE ARZENE Via delle Industrie, 2",F030027-0020_002,"Impianto di recupero VALVASONE ARZENE Via delle Industrie, 2",SALES PALLETS S.N.C. DI ROIATTI ALESSANDRO E LIANI FRANCESCA,PN,VALVASONE ARZENE,"via delle industrie,2",45.962719,12.869807,POINT (12.869807 45.962719)
Autorizzazione unica (ordinaria),"MEDEA Strada Provinciale n.6, km 5, Località Nella Torr",F031011-0005_002,"Impianto di recupero inerti MEDEA Strada Provinciale n.6, km 5, Località Nella Torr",S.A.L.I.T. S.R.L.,GO,MEDEA,"Nella Torr Strada Provinciale n.6,km 5",45.910264,13.39293,POINT (13.39293 45.910264)
Procedura semplificata/AUA,"MONTEREALE VALCELLINA Via Zona Industriale, 1",PN-COM-1,"Impianto di recupero inerti MONTEREALE VALCELLINA Via Zona Industriale, 1",S. ANTONINO - SOCIETA A RESPONSABILITA LIMITATA,PN,MONTEREALE VALCELLINA,"Grizzo Zona Industriale,1",46.140408,12.659399,POINT (12.659399 46.140408)
Procedura semplificata/AUA,"PASIAN DI PRATO Via Cristoforo Colombo, 185",COM_263,"Impianto di stoccaggio oli PASIAN DI PRATO Via Cristoforo Colombo, 185/5",S.A.P.I.-SOCIETA' AZIONARIA PRODOTTI INDUSTRIALI-SOCIETA' PER AZIONI,UD,PASIAN DI PRATO,"Via Cristoforo Colombo,185",46.041696,13.182147,POINT (13.182147 46.041696)
Autorizzazione unica (ordinaria),"TOLMEZZO Via Lovea, 19/B",F030121-0018_002,"Impianto mobile ""Powerscreen Chieftain 1400 T"" TOLMEZZO Via Lovea, 19/B",SCARSINI CALCESTRUZZI S.R.L.,UD,TOLMEZZO,"Via Lovea,19/B",,,
Autorizzazione unica (ordinaria),"TOLMEZZO Via Lovea, 14",UD_XYMOB032,Impianto mobile recupero inerti TOLMEZZO Via Lovea 14,"SCARSINI GIULIO EREDI DI SCARSINI ORLANDO, FIORENZO & GIOVANNI - S.N.C.",UD,TOLMEZZO,"Illegio Via Lovea,14",,,
Procedura semplificata/AUA,CORMONS Località Molin Nuovo,COM_807,Impianto di recupero inerti CORMONS Località Molin Nuovo,SCAVI SERGIO SGUBIN S.R.L.,GO,CORMONS,Cave di Brazzano Località Molin Nuovo,45.964,13.448301,POINT (13.448301 45.964)
Autorizzazione unica (ordinaria),"TRIESTE Via Roma, 30",TS_IMPMOBSEA,"Impianto mobile di trattamento rifiuti entro mezzo nautico ""Maurizio"" TRIESTE Via Roma 30",SEA SERVICE S.R.L.,TS,TRIESTE,"Via Roma,30",,,
Autorizzazione unica (ordinaria),"TRIESTE Via Roma, 30",TS_XYMOB001,"Impianto mobile di smaltimento in Motocisterna ""Lago Magadi"" TRIESTE Via Roma, 30",SEA SERVICE S.R.L.,TS,TRIESTE,"Via Roma,30",,,
Procedura semplificata/AUA,"TRIESTE Via Caboto, 19/11",F032006-0111_002,"Impianto di stoccaggio TRIESTE Via Caboto, 19/11",SEA SERVICE S.R.L.,TS,TRIESTE,"Via Giovanni e Sebastiano Caboto,19/11",45.612319,13.805758,POINT (13.805758 45.612319)
Autorizzazione unica (ordinaria),"FONTANAFREDDA Via Giovanni da Gemona, 22",PN_PN022004,"Impianto di autodemolizione FONTANAFREDDA Via Giovanni da Gemona, 22",SERENISSIMA S.A.S. DI RIGO DAVIDE & C.,PN,FONTANAFREDDA,"Via Giovanni da Gemona,22",45.965634,12.568739,POINT (12.568739 45.965634)
Procedura semplificata/AUA,"UDINE Via Calatafimi, 21",F030129-0051_002,"Impianto di recupero inerti UDINE Via Calatafimi, 21",SFA S.P.A.,UD,UDINE,"Via Calatafimi,21",46.052283,13.234859,POINT (13.234859 46.052283)
Autorizzazione AIA,AVIANO Via De Zan 64,PN/AIA/101,"Impianto di selezione e compostaggio di rifiuti urbani e produzione di css AVIANO Via De Zan, 64",S.N.U.A. S.R.L.,PN,AVIANO,"Via De Zan,64",46.057316,12.62458,POINT (12.62458 46.057316)
Procedura semplificata/AUA,"MORTEGLIANO Strada Vicinale, Lavariano",COM_993,"Impianto di messa in riserva biodegradabili MORTEGLIANO Strada Vicinale, Lavariano",SOC. AGR. FRIUL PRATI S.S. DI LUCCA G. & M.,UD,MORTEGLIANO,Lavariano Strada Vicinale,45.961979,13.224599,POINT (13.224599 45.961979)
Autorizzazione unica (ordinaria),"BUDOIA Via Pordenone, 64",PN_PN008001,"Impianto di autodemolizione BUDOIA Via Pordenone, 64",SOCCORSO STRADALE - AUTODEMOLIZIONE - WILMER DI FORT IVANA E C. -S.A.S.,PN,BUDOIA,"Via Pordenone,64",46.03528,12.547974,POINT (12.547974 46.03528)
Procedura semplificata/AUA,BUDOIA Via Pordenone,PN-COM-247,Impianto di compostaggio verde BUDOIA Via Pordenone,SOCIETA' AGRICOLA SEMPLICE TWIG S.S.,PN,BUDOIA,"Via Pordenone,61",46.027457,12.570338,POINT (12.570338 46.027457)
Autorizzazione unica (ordinaria),TRIESTE Porto di Grignano,TS_TS006009,Impianto di raccolta e trattamento rifiuti prodotti sulle unità da diporto TRIESTE Porto di Grignano,SOCIETA' NAUTICA GRIGNANO ASS. SPORTIVA DILETTANTISTICA,TS,TRIESTE,Grignano Area Porto di Grignano,45.705247,13.711968,POINT (13.711968 45.705247)
Procedura semplificata/AUA,"MONFALCONE Via Grado, 80",COM_895,"Impianto di messa in riserva di rifiuti vari MONFALCONE Via Grado, 80",SORANZIO FEDERICA & BUSSANICH S.N.C.,GO,MONFALCONE,"Via Grado,80",45.796902,13.518832,POINT (13.518832 45.796902)
Autorizzazione unica (ordinaria),"GORIZIA Via del Cotonificio, 32",F031007-0020_002,"Impianto mobile di recupero RAEE GORIZIA Via del Cotonificio, 32",SPHERAE S.R.L.,GO,GORIZIA,"Via del Cotonificio,32",,,
Autorizzazione unica (ordinaria),"GORIZIA Via del Cotonificio, 32",GO_GO007004,"Impianto di recupero raee GORIZIA Via del Cotonificio, 32",SPHERAE S.R.L.,GO,GORIZIA,"Via del Cotonificio,32",45.945502,13.601059,POINT (13.601059 45.945502)
Autorizzazione unica (ordinaria),"TOLMEZZO Via Paluzza, 67",F030121-0019_002,"Impianto mobile Omtrack Apollo n. 99C05900T TOLMEZZO Via Paluzza, 67",SPIGA S.R.L..,UD,TOLMEZZO,"Via Paluzza,67",,,
Procedura semplificata/AUA,"MANZANO Vittorio Veneto, 69",F030101-0022_002,"Impianto di messa in riserva MANZANO Vittorio Veneto, 69",STEEL DI EDOARDO DI LENARDO & C. S.A.S.,UD,MANZANO,"Oleis Via Vittorio Veneto,69",46.023246,13.39444,POINT (13.39444 46.023246)
Autorizzazione unica (ordinaria),"FIUMICELLO Via Brancolo, 5/A",F030038-0010_008,Impianto mobile  Vesuvio SUPER F1000 CV,S.T.R. SRL,UD,FIUMICELLO,"Papariano Via Brancolo,5/A",,,
Autorizzazione unica (ordinaria),"FIUMICELLO Via Brancolo, 5/A",UL-F030038-0010_009,"Impianto mobile Om Tk162 Ulisse 96 F FIUMICELLO Via Brancolo, 5/A",S.T.R. SRL,UD,FIUMICELLO,"Papariano Via Brancolo,5/A",45.803581,13.427182,POINT (13.427182 45.803581)
Autorizzazione unica (ordinaria),"FIUMICELLO Via Brancolo, 5/A",UD_XYMOB005,Impianto mobile OM Apollo mat. 99E11000T,S.T.R. SRL,UD,FIUMICELLO,"Papariano Via Brancolo,5/A",,,
Autorizzazione unica (ordinaria),"FIUMICELLO Via Brancolo, 5/A",UD_XYMOB014,Impianto mobile Keestrack mat. n 400,S.T.R. SRL,UD,FIUMICELLO,"Papariano Via Brancolo,5/A",,,
Procedura semplificata/AUA,"ROVEREDO IN PIANO  Via IV Novembre, 30 Località Lovera",PN-COM-273,"Impianto di recupero inerti ROVEREDO IN PIANO Via IV Novembre, 30 Località Lovera",SUPERBETON S.P.A.,PN,ROVEREDO IN PIANO,"Lovera Via IV Novembre,30",45.998573,12.598486,POINT (12.598486 45.998573)
Autorizzazione unica (ordinaria),"CIVIDALE DEL FRIULI Via Aquileia, 25",F026083-0003_002,"Impianto di recupero inerti CIVIDALE DEL FRIULI Via Aquileia, 25",SUPERBETON S.P.A.,UD,CIVIDALE DEL FRIULI,"Via Aquileia,25",46.061388,13.419682,POINT (13.419682 46.061388)
Procedura semplificata/AUA,"ZOPPOLA Via Pra' di Risi, 2",F026083-0002_002,"Impianto di recupero ceneri ZOPPOLA Via Pra' di Risi, 2",SUPERBETON S.P.A.,PN,ZOPPOLA,"Via Pra' di Risi,2",45.960403,12.738181,POINT (12.738181 45.960403)
Autorizzazione unica (ordinaria),"FIUME VENETO Via dei Pinali, 29/31",PN_PN021000,"Impianto di recupero metalli e raee FIUME VENETO Via dei Pinali, 29/31",TELLFER S.R.L.,PN,FIUME VENETO,"Cimpello Via dei Pinali,29/31",45.914787,12.68409,POINT (12.68409 45.914787)
Autorizzazione unica (ordinaria),MORTEGLIANO Località Braiduzzis,F030062-0023_002,Impianto di stoccaggio fanghi MORTEGLIANO Località Braiduzzis,TERRANOVA S.R.L.,UD,MORTEGLIANO,Località Braiduzzis,45.932983,13.199331,POINT (13.199331 45.932983)
Procedura semplificata/AUA,CORDENONS Via Campagnuta,PN-COM-258,Impianto di compostaggio verde CORDENONS Via Campagnuta,TERRAVERDE S.N.C. DI DEL PUP ANTONIO & C.,PN,CORDENONS,Via Campagnutta,46.011297,12.711004,POINT (12.711004 46.011297)
Autorizzazione unica (ordinaria),"PREMARIACCO Via Olimpia, 18",F100003-0003_002,"Impianto di recupero rifiuti tessili PREMARIACCO Via Olimpia, 18",TESMAPRI S.P.A.,UD,PREMARIACCO,"Zona Industriale Paderno Via Olimpia,18",46.045796,13.388015,POINT (13.388015 46.045796)
Autorizzazione AIA,"SEDEGLIANO Via Indipendenza, 42 Gradisca",UD/AIA/42,"Impianto di trattamento chimico-fisico e biologico in aia SEDEGLIANO Via Indipendenza, 42 -AIA/42",TESSILOR S.R.L.,UD,SEDEGLIANO,"Gradisca Via Indipendenza,42",46.004321,12.963041,POINT (12.963041 46.004321)
Autorizzazione unica (ordinaria),CHIONS Via Redenta 25,PN_XYMOB0016,Impianto mobile modello Minitrack 503 Pcv CHIONS Via Redenta 25,TODESCO SCAVI S.N.C. DI TODESCO ALDO & C.,PN,CHIONS,"Via Redenta,25",45.902647,12.780026,POINT (12.780026 45.902647)
Procedura semplificata/AUA,SAN VITO AL TAGLIAMENTO Via Gemona 34,PN-COM-198,Impianto di recupero inerti SAN VITO AL TAGLIAMENTO Via Gemona 34,TODESCO SCAVI S.N.C. DI TODESCO ALDO & C.,PN,SAN VITO AL TAGLIAMENTO,"Zona Industriale Ponte Rosso Via Gemona,34",45.944935,12.887757,POINT (12.887757 45.944935)
Procedura semplificata/AUA,"AZZANO DECIMO Via dei Laghi, 6",PN-COM-33,"Impianto di recupere inerti AZZANO DECIMO via dei Laghi, 6",TODESCO SCAVI S.N.C. DI TODESCO ALDO & C.,PN,AZZANO DECIMO,"Via dei Laghi,6",45.881451,12.748218,POINT (12.748218 45.881451)
Procedura semplificata/AUA,"BRUGNERA Via Ungaresca, 16",PN-COM-175,"Impianto di recupero energetico BRUGNERA Via Ungaresca, 16",TOMASELLA INDUSTRIA MOBILI DI TOMASELLA PAOLO & C. - SOCIETA' IN ACCOMANDITA SEMPLICE,PN,BRUGNERA,"Via Ungaresca di Brugnera,16",45.90217,12.536058,POINT (12.536058 45.90217)
Autorizzazione unica (ordinaria),VALVASONE ARZENE Via Grava 28,PN_XYMOB0015,Impianto mobile Sandvik QI341HS matricola QI341-11001 VALVASONE ARZENE Via Grava 28,TRANS GHIAIA S.R.L.,PN,VALVASONE ARZENE,"Via Grava,28",46.006102,12.817805,POINT (12.817805 46.006102)
Autorizzazione unica (ordinaria),VALVASONE ARZENE Via Grava 28,PN_XYMOB006,Impianto mobile REV GSV 35/S matricola n. 10954 VALVASONE ARZENE Via Grava 28,TRANS GHIAIA S.R.L.,PN,VALVASONE ARZENE,"Via Grava,28",46.006255,12.817964,POINT (12.817964 46.006255)
Autorizzazione unica (ordinaria),VALVASONE ARZENE Via Grava 28,PN_XYMOB013,Impianto mobile REV GCR 106 matricola n. 10740 VALVASONE ARZENE Via Grava 28,TRANS GHIAIA S.R.L.,PN,VALVASONE ARZENE,"Via Grava,28",46.006255,12.817964,POINT (12.817964 46.006255)
Procedura semplificata/AUA,VALVASONE ARZENE Via Grava 28,PN-COM-156,"Impianto di recupero inerti in aua VALVASONE ARZENE Via Grava, 28",TRANS GHIAIA S.R.L.,PN,VALVASONE ARZENE,"Via Grava,28",46.006363,12.82186,POINT (12.82186 46.006363)
Autorizzazione unica (ordinaria),VALVASONE ARZENE Via Grava 28,DIS213PN,"Discarica per inerti VALVASONE ARZENE Via Grava, 28",TRANS GHIAIA S.R.L.,PN,VALVASONE ARZENE,"Via Grava,28",46.005242,12.820099,POINT (12.820099 46.005242)
Procedura semplificata/AUA,"FONTANAFREDDA Via Giacomo Puccini, 88",PN-COM-46,"Impianto di recupero metalli FONTANAFREDDA Via Giacomo Puccini, 88",TRUCCOLO ANGELO S.R.L.,PN,FONTANAFREDDA,"Vigonovo Via Giacomo Puccini,88",45.982289,12.557345,POINT (12.557345 45.982289)
Procedura semplificata/AUA,MARTIGNACCO Via Malignani,COM_531,Impianto di messa in riserva cartucce toner MARTIGNACCO Via Malignani,UDINESE SERVIZI E FORNITURE S.N.C. DI DEL GIUDICE LEONARDO E GREATTI LUISA,UD,MARTIGNACCO,"Via Arturo Malignani,27/4",46.085003,13.153145,POINT (13.153145 46.085003)
Autorizzazione unica (ordinaria),"SAN VITO AL TAGLIAMENTO Via Gemona, 6",F016091-0002_002,"Impianto recupero legno non pericoloso SAN VITO AL TAGLIAMENTO Via Gemona, 6",UNILEGNO FRIULI SRL,PN,SAN VITO AL TAGLIAMENTO,"Zona Industriale Ponte Rosso Via Gemona,6",45.934457,12.886561,POINT (12.886561 45.934457)
Procedura semplificata/AUA,BRUGNERA Via Carpenè 23,PN-COM-260,Impianto di recupero energetico BRUGNERA Via Carpenè 23,VALENEXT SRL,PN,BRUGNERA,"Zona Industriale di Maron Via Antonio Carpenè,23",45.912769,12.551085,POINT (12.551085 45.912769)
Procedura semplificata/AUA,BICINICCO via Santa Maria 32,COM_541,Impianto di stoccaggio BICINICCO Via Santa Maria 32,VALORI FRANCO & C. S.R.L.,UD,BICINICCO,"Via Santa Maria,32",45.930634,13.259672,POINT (13.259672 45.930634)
Procedura semplificata/AUA,"SPILIMBERGO Viale Barbacane,13",F093044-0018_002,"Impianto di recupero inerti SPILIMBERGO Viale Barbacane, 13",VENILIO DE STEFANO S.R.L.,PN,SPILIMBERGO,"Viale Barbacane,13",46.134568,12.874947,POINT (12.874947 46.134568)
Procedura semplificata/AUA,MUGGIA Via del Canneto 10,AUA14TS,Impianto di compostaggio rifiuti organici MUGGIA Via del Canneto 10,VERDE NOGHERE SOCIETA' A RESPONSABILITA' LIMITATA SEMPLIFICATA,TS,MUGGIA,"Vignano Via del Canneto,10",45.587252,13.811614,POINT (13.811614 45.587252)
Procedura semplificata/AUA,VARMO Strada comunale Romans Cornazzai,COM_548,Impianto di recupero inerti VARMO Strada comunale Romans Cornazzai,VUARAN GIANNI DI VUARAN MANUEL & C. S.A.S.,UD,VARMO,Cornazzai Strada Comunale Romans Cornazzai,45.880997,13.013252,POINT (13.013252 45.880997)
Autorizzazione unica (ordinaria),"VARMO Via Tagliamento, 18",F030130-0005_002,"Impianto mobile recupero inerti screen GI 5000R VARMO Via Tagliamento, 18",ZANINI OLIVIERO S.R.L.,UD,VARMO,"Via Tagliamento,18",,,
Autorizzazione unica (ordinaria),VARMO Via Tagliamento 18,F030130-0009_002,Impianto mobile recupero inerti Olimpo GI118C VARMO Via Tagliamento 18,ZANINI OLIVIERO S.R.L.,UD,VARMO,"Via Tagliamento,18",,,
Autorizzazione unica (ordinaria),"VARMO Via Tagliamento, 18",UL-F030130-0006_004,"Impianto mobile Gasparin Omg-GI106C Diablo VARMO Via Tagliamento, 18",ZANINI OLIVIERO S.R.L.,UD,VARMO,"Via Tagliamento,18",,,
Procedura semplificata/AUA,"MORTEGLIANO Località Braidasse, Chiasiellis",COM_581,"Impianto di recupero inerti MORTEGLIANO Località Braidasse, Chiasiellis",ZANINI OLIVIERO S.R.L.,UD,MORTEGLIANO,Chiasiellis Località Braidasse,45.951328,13.210974,POINT (13.210974 45.951328)
Procedura semplificata/AUA,TRIESTE via Rozzol Callaia 1683,COM_672,Impianto di messa in riserva TRIESTE via Rozzol Callaia 1683,ZANUTTA S.P.A.,TS,TRIESTE,"Via Rozzol Callaia,1683",45.638377,13.817662,POINT (13.817662 45.638377)
Autorizzazione AIA,"MANIAGO Via dell'Industria, 10",PN/AIA/5-56,"Impianto di recupero metalli MANIAGO Via dell'Industria, 10 - AIA",ZML INDUSTRIES S.P.A.,PN,MANIAGO,"Zona Industriale Campagna Viale dell'Industria,10",46.149444,12.727509,POINT (12.727509 46.149444)
Procedura semplificata/AUA,"STARANZANO Via Rosa Agazzi, 11",COM_903,Impianto di recupero rottami metallici STARANZANO Via Rosa Agazzi 11,ZOTTI GAETANO,GO,STARANZANO,"Via Rosa Agazzi,11",45.790791,13.503522,POINT (13.503522 45.790791)
Autorizzazione AIA,"SESTO AL REGHENA Via Villacucca, 1",PN/AIA/98,"Impianto recupero ceneri, scorie, inerti SESTO AL REGHENA Via Villacucca, 1",,PN,SESTO AL REGHENA,"Via Villacucca,1",45.84637,12.826594,POINT (12.826594 45.84637)
Autorizzazione unica (ordinaria),"TRIESTE Via Caboto, 19/11",F032006-0091_002,"Impianto mobile soil washing TRIESTE Via Caboto,19/11",,TS,TRIESTE,"Via Giovanni e Sebastiano Caboto,19/11",45.655536,13.773811,POINT (13.773811 45.655536)
Autorizzazione unica (ordinaria),"SAN GIOVANNI AL NATISONE Via Madonna di Strada, 52",UD_XYMOB008,"Impianto mobile Komatsu matr. KMTBR023H02002543 SAN GIOVANNI AL NATISONE Via Madonna di Strada, 52",,UD,SAN GIOVANNI AL NATISONE,"Via Madonna di Strada,52",,,
Autorizzazione unica (ordinaria),"FORGARIA NEL FRIULI  Via Sompcornino, 71",UD_XYMOB002,"Impianto mobile Gasparin matr. 08003/2008 FORGARIA NEL FRIULI Via Sompcornino, 71",,UD,FORGARIA NEL FRIULI,"Via Sompcornino,71",,,
Autorizzazione unica (ordinaria),"UDINE Via del Canapificio, 43",UD_XYMOB026,"Impianto mobile di recupero inerti OM mat. 99905600T e EXTEC mat. 10928 UDINE Via del Canapificio, 43",,UD,UDINE,"Via del Canapificio,43",,,
Autorizzazione unica (ordinaria),"SAN VITO AL TAGLIAMENTO Via Armenia, 15",PN_PN041006,"Impianto di recupero inerti SAN VITO AL TAGLIAMENTO Via Armenia, 15",,PN,SAN VITO AL TAGLIAMENTO,"Zona Industriale Ponte Rosso Via Armenia,15",45.9476,12.8882,POINT (12.8882 45.9476)
Autorizzazione unica (ordinaria),"TRIESTE Via Brigata Casale, 2",TS_TS006005,"Impianto di autodemolizione TRIESTE Via Brigata Casale, 2",,TS,TRIESTE,"Via Brigata Casale,2",45.62176,13.815357,POINT (13.815357 45.62176)
Autorizzazione unica (ordinaria),CAMPOFORMIDO Via della Fonderia 1,UD_00003415,"Impianto di autodemolizione CAMPOFORMIDO Via della Fonderia 1, Basaldella",,UD,CAMPOFORMIDO,"Basaldella Via Fonderia,1",46.035365,13.217224,POINT (13.217224 46.035365)
